"category","name","label","label2","address","postal_code","country","latitude","longitude"
"PARKS","BEDOK RESERVOIR PK","RESERVES","EK501",NA,NA,"Singapore",1.342343687,103.9258486
"PARKS","Hindhede Nature Park","RESERVES","NRNP11",NA,NA,"Singapore",1.350144167,103.7759838
"PARKS","Hindhede Nature Park","RESERVES","NRNP11",NA,NA,"Singapore",1.347585894,103.7759806
"PARKS","CHESTNUT CLOSE PARK","RESERVES","PKWR013",NA,NA,"Singapore",1.368951416,103.7733389
"PARKS","CHESTNUT CLOSE PARK","RESERVES","PKWR013",NA,NA,"Singapore",1.369243439,103.7732939
"PARKS","CHESTNUT CLOSE PARK","RESERVES","PKWR013",NA,NA,"Singapore",1.369118999,103.7734367
"PARKS","CHESTNUT CLOSE PARK","RESERVES","PKWR013",NA,NA,"Singapore",1.369058033,103.7739985
"PARKS","HAIG WALK (GEYLANG RD-DUNMAN RD)","RESERVES","EK593",NA,NA,"Singapore",1.306629516,103.9006827
"PARKS","HAIG WALK (GEYLANG RD-DUNMAN RD)","RESERVES","EK593",NA,NA,"Singapore",1.308770822,103.8996021
"PARKS","PEARL'S HILL CITY PK","RESERVES","SO508",NA,NA,"Singapore",1.284487478,103.8398803
"PARKS","one-north Park","RESERVES","WP506",NA,NA,"Singapore",1.30344104,103.7906329
"PARKS","one-north Park","RESERVES","WP506",NA,NA,"Singapore",1.299447009,103.7905919
"PARKS","one-north Park","RESERVES","WP506",NA,NA,"Singapore",1.295096456,103.7929106
"PARKS","one-north Park","RESERVES","WP506",NA,NA,"Singapore",1.300909777,103.7905632
"PARKS","one-north Park","RESERVES","WP506",NA,NA,"Singapore",1.305518951,103.7890221
"PARKS","one-north Park","RESERVES","WP506",NA,NA,"Singapore",1.306029095,103.7880896
"PARKS","Hillview Crescent Playground","RESERVES","WB539",NA,NA,"Singapore",1.355341126,103.7609974
"PARKS","FARQUHAR GARDEN (FCP)","RESERVES","SF511",NA,NA,"Singapore",1.295708604,103.8487232
"PARKS","Jalan Remaja Interim Park","RESERVES","PKWR010",NA,NA,"Singapore",1.35754688,103.7608006
"PARKS","MARSILING PARK","RESERVES","NW500",NA,NA,"Singapore",1.437671417,103.7697867
"PARKS","Kent Ridge Park","RESERVES","WP503",NA,NA,"Singapore",1.285028007,103.7893633
"PARKS","Kent Ridge Park","RESERVES","WP503",NA,NA,"Singapore",1.278532403,103.79447
"PARKS","Kent Ridge Park","RESERVES","WP503",NA,NA,"Singapore",1.277027098,103.7940813
"PARKS","Kent Ridge Park","RESERVES","WP503",NA,NA,"Singapore",1.288700524,103.7840836
"PARKS","MIMOSA TERRACE PG","RESERVES","NP535",NA,NA,"Singapore",1.384029441,103.8604278
"PARKS","JLN GENENG INTERIM PK","RESERVES","NP542",NA,NA,"Singapore",1.353333347,103.8809143
"PARKS","West Coast Park","RESERVES","WJ500",NA,NA,"Singapore",1.296715205,103.7627251
"PARKS","West Coast Park","RESERVES","WJ500",NA,NA,"Singapore",1.288572417,103.7722323
"PARKS","EAST COAST TERRACE PK","RESERVES","EK514",NA,NA,"Singapore",1.310938488,103.9238149
"PARKS","Phoenix Park","RESERVES","WB527",NA,NA,"Singapore",1.375881322,103.7572272
"PARKS","EAST COAST PARK AREA H","RESERVES","EE516",NA,NA,"Singapore",1.315968577,103.9687543
"PARKS","ALJUNIED PK","RESERVES","NP507",NA,NA,"Singapore",1.329461213,103.879916
"PARKS","STRATTON WALK PG","RESERVES","NP531",NA,NA,"Singapore",1.379162376,103.8669313
"PARKS","PEBBLE GARDEN","RESERVES","NS525",NA,NA,"Singapore",1.450641341,103.8294901
"PARKS","ARMENIAN STREET (FCP)","RESERVES","CO107",NA,NA,"Singapore",1.294464142,103.8494937
"PARKS","ARMENIAN STREET (FCP)","RESERVES","CO107",NA,NA,"Singapore",1.293343447,103.8488662
"PARKS","JLN CHEMPAKA KUNING PG","RESERVES","EC512",NA,NA,"Singapore",1.329745237,103.9501755
"PARKS","CANNING RISE (FCP)","RESERVES","CO808",NA,NA,"Singapore",1.295486361,103.8481284
"PARKS","UPPER PAYA LEBAR INTERIM PARK","RESERVES","NP548",NA,NA,"Singapore",1.343582667,103.8824198
"PARKS","Nim Meadow Park","RESERVES","NP549",NA,NA,"Singapore",1.378638509,103.8633382
"PARKS","PARRY RD PG","RESERVES","NP527",NA,NA,"Singapore",1.365945067,103.8775405
"PARKS","LENTOR VALE PG","RESERVES","NS515",NA,NA,"Singapore",1.387994155,103.8361407
"PARKS","BANYAN VILLAS PG","RESERVES","NS516",NA,NA,"Singapore",1.387286892,103.838847
"PARKS","LUCKY GARDENS PG","RESERVES","EC525",NA,NA,"Singapore",1.31925467,103.941457
"PARKS","SENNETT AVE PG","RESERVES","EC526",NA,NA,"Singapore",1.316950315,103.9361702
"PARKS","JLN LIMAU KASTURI PG","RESERVES","EC527",NA,NA,"Singapore",1.323980066,103.9463705
"PARKS","KEW AVE PG","RESERVES","EC528",NA,NA,"Singapore",1.321626513,103.9484527
"PARKS","KEW CRESCENT PG","RESERVES","EC529",NA,NA,"Singapore",1.319287717,103.9485408
"PARKS","Bukit Gombak Park","RESERVES","WT516",NA,NA,"Singapore",1.367310123,103.75244
"PARKS","BEDOK RIA CRESCENT PG","RESERVES","EC519",NA,NA,"Singapore",1.32742201,103.9530778
"PARKS","HARVEY CRESCENT PG","RESERVES","EC520",NA,NA,"Singapore",1.340654674,103.9552197
"PARKS","SINGAPORE BOTANIC GARDENS","RESERVES","SBG",NA,NA,"Singapore",1.314200302,103.8159585
"PARKS","SINGAPORE BOTANIC GARDENS","RESERVES","SBG",NA,NA,"Singapore",1.313727414,103.8105355
"PARKS","SINGAPORE BOTANIC GARDENS","RESERVES","SBG",NA,NA,"Singapore",1.314849164,103.8176465
"PARKS","SINGAPORE BOTANIC GARDENS","RESERVES","SBG",NA,NA,"Singapore",1.307470877,103.8189469
"PARKS","SINGAPORE BOTANIC GARDENS","RESERVES","SBG",NA,NA,"Singapore",1.308397951,103.8185954
"PARKS","SINGAPORE BOTANIC GARDENS","RESERVES","SBG",NA,NA,"Singapore",1.308952225,103.8183482
"PARKS","JANGGUS GARDEN","RESERVES","NS524",NA,NA,"Singapore",1.457528798,103.8369723
"PARKS","JLN LIMAU MANIS PG","RESERVES","EC508",NA,NA,"Singapore",1.324725441,103.9490564
"PARKS","GARDEN VIEW PG","RESERVES","NA527",NA,NA,"Singapore",1.360383555,103.8656691
"PARKS","THOMSON GREEN PG","RESERVES","NA520",NA,NA,"Singapore",1.378693986,103.8326018
"PARKS","JLN RIANG PG","RESERVES","NA528",NA,NA,"Singapore",1.347131024,103.8673689
"PARKS","MEI HWAN CRESCENT PG","RESERVES","NA529",NA,NA,"Singapore",1.352807716,103.8617364
"PARKS","FULTON AVE PG","RESERVES","NA538",NA,NA,"Singapore",1.36212607,103.8335579
"PARKS","TAMARIND RD PG","RESERVES","NP523",NA,NA,"Singapore",1.389694184,103.8601972
"PARKS","NIM CRESCENT OS","RESERVES","NP524",NA,NA,"Singapore",1.383068566,103.8668446
"PARKS","BEGONIA RD PG","RESERVES","NP525",NA,NA,"Singapore",1.387865074,103.8633803
"PARKS","JLN NAUNG PG","RESERVES","NP526",NA,NA,"Singapore",1.369532016,103.8928192
"PARKS","JLN ISMAIL PK","RESERVES","EK751",NA,NA,"Singapore",1.323199425,103.9058439
"PARKS","ELITE TERRACE PK","RESERVES","EK516",NA,NA,"Singapore",1.315593825,103.9243051
"PARKS","GEYLANG EAST PK","RESERVES","EK518",NA,NA,"Singapore",1.321773086,103.8876567
"PARKS","LOYANG VIEW PG","RESERVES","EC507",NA,NA,"Singapore",1.36315037,103.9658093
"PARKS","JLN ANGIN LAUT PG","RESERVES","EC509",NA,NA,"Singapore",1.337155422,103.9562272
"PARKS","EASTWOOD PK PG","RESERVES","EC511",NA,NA,"Singapore",1.323140702,103.9575787
"PARKS","SUNRISE WAY PG","RESERVES","NA518",NA,NA,"Singapore",1.387661011,103.856694
"PARKS","YISHUN PK","RESERVES","NS501",NA,NA,"Singapore",1.42448807,103.8424829
"PARKS","CARPMAEL PARK","RESERVES","EK524",NA,NA,"Singapore",1.311502708,103.898958
"PARKS","INTERIM PK AT TERANG BULAN AVE","RESERVES","EK532",NA,NA,"Singapore",1.321597372,103.9215625
"PARKS","TAMAN PERMATA PK","RESERVES","NA550",NA,NA,"Singapore",1.350006928,103.834969
"PARKS","LEBAN PARK","RESERVES","NA511",NA,NA,"Singapore",1.372611097,103.8291683
"PARKS","Bukit Batok Town Park","RESERVES","NRNP16",NA,NA,"Singapore",1.357578536,103.7557269
"PARKS","EAST COAST PARK AREA C","RESERVES","EE502",NA,NA,"Singapore",1.300348823,103.9113743
"PARKS","Mount Faber Park","RESERVES","WT502",NA,NA,"Singapore",1.272822106,103.8190474
"PARKS","Mount Faber Park","RESERVES","WT502",NA,NA,"Singapore",1.270145349,103.8196672
"PARKS","Mount Faber Park","RESERVES","WT502",NA,NA,"Singapore",1.273902879,103.816774
"PARKS","Mount Faber Park","RESERVES","WT502",NA,NA,"Singapore",1.270107086,103.824617
"PARKS","Mount Faber Park","RESERVES","WT502",NA,NA,"Singapore",1.271159012,103.8245404
"PARKS","Mount Faber Park","RESERVES","WT502",NA,NA,"Singapore",1.270805986,103.8248962
"PARKS","Mount Faber Park","RESERVES","WT502",NA,NA,"Singapore",1.273061596,103.820513
"PARKS","Mount Faber Park","RESERVES","WT502",NA,NA,"Singapore",1.268979157,103.8288755
"PARKS","Telok Blangah Hill Park","RESERVES","WT505",NA,NA,"Singapore",1.278394252,103.811873
"PARKS","Telok Blangah Hill Park","RESERVES","WT505",NA,NA,"Singapore",1.280071361,103.8037021
"PARKS","Telok Blangah Hill Park","RESERVES","WT505",NA,NA,"Singapore",1.280155731,103.8026958
"PARKS","Hoover Park (Lor Pisang Hijau Playground)","RESERVES","WB536",NA,NA,"Singapore",1.34386137,103.7730481
"PARKS","Pavilion Playground II","RESERVES","PKWR017",NA,NA,"Singapore",1.368250249,103.7533143
"PARKS","Faber Heights Park","RESERVES","PKWR022",NA,NA,"Singapore",1.323879021,103.7552821
"PARKS","Coney Island Park","RESERVES","NP501",NA,NA,"Singapore",1.408830945,103.9226172
"PARKS","Native Plant Centre","RESERVES","HN002",NA,NA,"Singapore",1.417252251,103.72741
"PARKS","Chuan Lane Park","RESERVES","NA551",NA,NA,"Singapore",1.35175389,103.8580869
"PARKS","LORONG MELAYU PARK","RESERVES","PKER017",NA,NA,"Singapore",1.323993101,103.909265
"PARKS","MIMOSA WALK PG","RESERVES","NP519",NA,NA,"Singapore",1.38308347,103.861461
"PARKS","JLN PELATOK PG","RESERVES","EC515",NA,NA,"Singapore",1.346145802,103.9602698
"PARKS","SERENADE WALK PG","RESERVES","NA513",NA,NA,"Singapore",1.379764158,103.8346445
"PARKS","SUNRISE DR PG I","RESERVES","NA516",NA,NA,"Singapore",1.388273038,103.857407
"PARKS","SUNRISE PLACE PG","RESERVES","NA517",NA,NA,"Singapore",1.386942706,103.8566078
"PARKS","SUNRISE DR PG II","RESERVES","NA525",NA,NA,"Singapore",1.3902934,103.855201
"PARKS","CHARTWELL DR PK","RESERVES","NA526",NA,NA,"Singapore",1.359538802,103.8639039
"PARKS","Upper Seletar Reservoir Park","RESERVES","NRNP05",NA,NA,"Singapore",1.400458369,103.8066974
"PARKS","Chestnut Nature Park","RESERVES","NRNP10",NA,NA,"Singapore",1.380146109,103.7788207
"PARKS","Chestnut Nature Park","RESERVES","NRNP10",NA,NA,"Singapore",1.36878667,103.7805686
"PARKS","Chestnut Nature Park","RESERVES","NRNP10",NA,NA,"Singapore",1.372662106,103.7801321
"PARKS","Kranji Coastal Nature Park","RESERVES","NRNP27",NA,NA,"Singapore",1.444180076,103.7336256
"PARKS","OLD UPPER ALJUNIED ROAD","RESERVES","CN773",NA,NA,"Singapore",1.339078762,103.873847
"PARKS","OLD UPPER ALJUNIED ROAD","RESERVES","CN773",NA,NA,"Singapore",1.339609631,103.8725094
"PARKS","OLD UPPER ALJUNIED ROAD","RESERVES","CN773",NA,NA,"Singapore",1.338073203,103.8763819
"PARKS","OLD UPPER ALJUNIED ROAD","RESERVES","CN773",NA,NA,"Singapore",1.338872057,103.8753894
"PARKS","OLD UPPER ALJUNIED ROAD","RESERVES","CN773",NA,NA,"Singapore",1.339431788,103.8745439
"PARKS","CHEMPAKA AVE PG","RESERVES","NP541",NA,NA,"Singapore",1.331874085,103.8756155
"PARKS","LENTOR STREET PG","RESERVES","NS509",NA,NA,"Singapore",1.390096689,103.8342826
"PARKS","FUDU WALK PG","RESERVES","NS511",NA,NA,"Singapore",1.38984629,103.837214
"PARKS","LENTOR GREEN PG","RESERVES","NS512",NA,NA,"Singapore",1.385247452,103.8370401
"PARKS","MARINE PARADE RD PK","RESERVES","EK555",NA,NA,"Singapore",1.304985194,103.9082435
"PARKS","MARINE PARADE RD PK","RESERVES","EK555",NA,NA,"Singapore",1.302393088,103.9044073
"PARKS","MARINE PARADE RD PK","RESERVES","EK555",NA,NA,"Singapore",1.303493198,103.9059263
"PARKS","SISTERS' ISLAND MARINE PARK","RESERVES","PKCR030",NA,NA,"Singapore",1.214491317,103.8336274
"PARKS","SISTERS' ISLAND MARINE PARK","RESERVES","PKCR030",NA,NA,"Singapore",1.218585415,103.8463357
"PARKS","SISTERS' ISLAND MARINE PARK","RESERVES","PKCR030",NA,NA,"Singapore",1.231497642,103.8366497
"PARKS","Jalan Senang Linear Park","RESERVES","PKER004",NA,NA,"Singapore",1.325716492,103.917202
"PARKS","Jalan Senang Linear Park","RESERVES","PKER004",NA,NA,"Singapore",1.324935091,103.9158272
"PARKS","Jalan Senang Linear Park","RESERVES","PKER004",NA,NA,"Singapore",1.3241987,103.9148867
"PARKS","Jalan Senang Linear Park","RESERVES","PKER004",NA,NA,"Singapore",1.323328956,103.9139469
"PARKS","MACRITCHIE RESERVOIR PK","RESERVES","CN007",NA,NA,"Singapore",1.342606718,103.8335909
"PARKS","Pulau Ubin and Chek Jawa","RESERVES","NRNP21",NA,NA,"Singapore",1.413370339,103.9598406
"PARKS","CONNAUGHT DRIVE","RESERVES","CO154",NA,NA,"Singapore",1.290281467,103.8534622
"PARKS","CONNAUGHT DRIVE","RESERVES","CO154",NA,NA,"Singapore",1.289700878,103.8533925
"PARKS","CONNAUGHT DRIVE","RESERVES","CO154",NA,NA,"Singapore",1.28829931,103.8523831
"PARKS","CONNAUGHT DRIVE","RESERVES","CO154",NA,NA,"Singapore",1.291425243,103.8540559
"PARKS","CONNAUGHT DRIVE","RESERVES","CO154",NA,NA,"Singapore",1.291565127,103.8541568
"PARKS","CONNAUGHT DRIVE","RESERVES","CO154",NA,NA,"Singapore",1.301877562,104.686123
"PARKS","HENRY PK","RESERVES","WB526",NA,NA,"Singapore",1.316267026,103.7831238
"PARKS","NOVENA RISE PK","RESERVES","ST531",NA,NA,"Singapore",1.324699156,103.8429024
"PARKS","FUYONG INTERIM PK","RESERVES","PKWR011",NA,NA,"Singapore",1.357446055,103.7688028
"PARKS","ANG MO KIO TOWN GARDEN WEST","RESERVES","NA501",NA,NA,"Singapore",1.374167607,103.8429487
"PARKS","CHOA CHU KANG PK","RESERVES","NW502",NA,NA,"Singapore",1.387072049,103.7473877
"PARKS","Tampines North Boulevard Park","RESERVES","WT517",NA,NA,"Singapore",1.363742219,103.9407308
"PARKS","EAST COAST PARK AREA D","RESERVES","EE503",NA,NA,"Singapore",1.304322599,103.9247547
"PARKS","Bishan-Ang Mo Kio Park (Pond Gardens)","RESERVES","NA502",NA,NA,"Singapore",1.365170695,103.8362982
"PARKS","ST. NICHOLAS VIEW PLAYGROUND","RESERVES","NA508",NA,NA,"Singapore",1.371706011,103.8328149
"PARKS","Hampstead Wetlands Park","RESERVES","PKCN003",NA,NA,"Singapore",1.409355825,103.8692833
"PARKS","Jurong Lake Gardens West","RESERVES","PKWR018",NA,NA,"Singapore",1.333822443,103.7266331
"PARKS","Labrador Nature Reserve","RESERVES","NRNP01",NA,NA,"Singapore",1.266612185,103.8025392
"PARKS","Bukit Timah Nature Reserve","RESERVES","NRNP03",NA,NA,"Singapore",1.35443434,103.7780731
"PARKS","Labrador Nature Park","RESERVES","NRNP18",NA,NA,"Singapore",1.264399821,103.8039486
"PARKS","Labrador Nature Park","RESERVES","NRNP18",NA,NA,"Singapore",1.268687074,103.8005797
"PARKS","Labrador Nature Park","RESERVES","NRNP18",NA,NA,"Singapore",1.265988691,103.8042784
"PARKS","Labrador Nature Park","RESERVES","NRNP18",NA,NA,"Singapore",1.272192196,103.8026857
"PARKS","SpringLeaf Nature Park","RESERVES","NRNP14",NA,NA,"Singapore",1.401902544,103.8201246
"PARKS","SpringLeaf Nature Park","RESERVES","NRNP14",NA,NA,"Singapore",1.400089284,103.8197167
"PARKS","SpringLeaf Nature Park","RESERVES","NRNP14",NA,NA,"Singapore",1.400755239,103.8154836
"PARKS","SpringLeaf Nature Park","RESERVES","NRNP14",NA,NA,"Singapore",1.402257052,103.8218385
"PARKS","SpringLeaf Nature Park","RESERVES","NRNP14",NA,NA,"Singapore",1.401394357,103.8192636
"PARKS","SpringLeaf Nature Park","RESERVES","NRNP14",NA,NA,"Singapore",1.402875153,103.8253575
"PARKS","SpringLeaf Nature Park","RESERVES","NRNP14",NA,NA,"Singapore",1.40202286,103.8257898
"PARKS","SpringLeaf Nature Park","RESERVES","NRNP14",NA,NA,"Singapore",1.401268403,103.8230006
"PARKS","SpringLeaf Nature Park","RESERVES","NRNP14",NA,NA,"Singapore",1.401245206,103.81782
"PARKS","SpringLeaf Nature Park","RESERVES","NRNP14",NA,NA,"Singapore",1.40163535,103.8241757
"PARKS","Central Catchment Nature Reserve","RESERVES","NRNP04",NA,NA,"Singapore",1.376327189,103.8018922
"PARKS","Central Catchment Nature Reserve","RESERVES","NRNP04",NA,NA,"Singapore",1.414320041,103.7903017
"PARKS","Central Catchment Nature Reserve","RESERVES","NRNP04",NA,NA,"Singapore",1.40868569,103.8073841
"PARKS","Central Catchment Nature Reserve","RESERVES","NRNP04",NA,NA,"Singapore",1.413450142,103.8056238
"PARKS","Sungei Buloh Southern Extension","RESERVES","NRNP30",NA,NA,"Singapore",1.435828486,103.7205689
"PARKS","Rail Corridor","RESERVES","NRNP20",NA,NA,"Singapore",1.351230826,103.7716431
"PARKS","Rail Corridor","RESERVES","NRNP20",NA,NA,"Singapore",1.332400127,103.7813298
"PARKS","Rail Corridor","RESERVES","NRNP20",NA,NA,"Singapore",1.403262189,103.7535474
"PARKS","Rail Corridor","RESERVES","NRNP20",NA,NA,"Singapore",1.374190385,103.7621109
"PARKS","Rail Corridor","RESERVES","NRNP20",NA,NA,"Singapore",1.368202468,103.7647578
"PARKS","Rail Corridor","RESERVES","NRNP20",NA,NA,"Singapore",1.360015514,103.7666591
"PARKS","Rail Corridor","RESERVES","NRNP20",NA,NA,"Singapore",1.396676347,103.7527265
"PARKS","Rail Corridor","RESERVES","NRNP20",NA,NA,"Singapore",1.425219316,103.7603673
"PARKS","Rail Corridor","RESERVES","NRNP20",NA,NA,"Singapore",1.420034215,103.7548394
"PARKS","Rail Corridor","RESERVES","NRNP20",NA,NA,"Singapore",1.343748412,103.7768148
"PARKS","Rail Corridor","RESERVES","NRNP20",NA,NA,"Singapore",1.327638193,103.781656
"PARKS","Rail Corridor","RESERVES","NRNP20",NA,NA,"Singapore",1.324093501,103.7818545
"PARKS","Rail Corridor","RESERVES","NRNP20",NA,NA,"Singapore",1.31258351,103.7897122
"PARKS","Rail Corridor","RESERVES","NRNP20",NA,NA,"Singapore",1.297153444,103.796814
"PARKS","Rail Corridor","RESERVES","NRNP20",NA,NA,"Singapore",1.283866002,103.8103246
"PARKS","Rail Corridor","RESERVES","NRNP20",NA,NA,"Singapore",1.279474244,103.8225435
"PARKS","Rail Corridor","RESERVES","NRNP20",NA,NA,"Singapore",1.279784505,103.8197256
"PARKS","Rail Corridor","RESERVES","NRNP20",NA,NA,"Singapore",1.415868959,103.7545264
"PARKS","Rail Corridor","RESERVES","NRNP20",NA,NA,"Singapore",1.339098191,103.7802102
"PARKS","Rail Corridor","RESERVES","NRNP20",NA,NA,"Singapore",1.284134305,103.8064557
"PARKS","Rail Corridor","RESERVES","NRNP20",NA,NA,"Singapore",1.392688665,103.7531603
"PARKS","Rail Corridor","RESERVES","NRNP20",NA,NA,"Singapore",1.410474354,103.7552022
"PARKS","Rail Corridor","RESERVES","NRNP20",NA,NA,"Singapore",1.284329623,103.8033586
"PARKS","Rail Corridor","RESERVES","NRNP20",NA,NA,"Singapore",1.303957842,103.7933211
"PARKS","Rail Corridor","RESERVES","NRNP20",NA,NA,"Singapore",1.319466178,103.7842889
"PARKS","Rail Corridor","RESERVES","NRNP20",NA,NA,"Singapore",1.283101964,103.8138052
"PARKS","Rail Corridor","RESERVES","NRNP20",NA,NA,"Singapore",1.316644183,103.7858618
"PARKS","Rail Corridor","RESERVES","NRNP20",NA,NA,"Singapore",1.281852677,103.8161122
"PARKS","Rail Corridor","RESERVES","NRNP20",NA,NA,"Singapore",1.286446596,103.7993323
"PARKS","Rail Corridor","RESERVES","NRNP20",NA,NA,"Singapore",1.290148567,103.799018
"PARKS","Rail Corridor","RESERVES","NRNP20",NA,NA,"Singapore",1.292339144,103.798992
"PARKS","Rail Corridor","RESERVES","NRNP20",NA,NA,"Singapore",1.276341834,103.8281403
"PARKS","Rail Corridor","RESERVES","NRNP20",NA,NA,"Singapore",1.321376836,103.7833289
"PARKS","Rail Corridor","RESERVES","NRNP20",NA,NA,"Singapore",1.309695402,103.7910392
"PARKS","Rail Corridor","RESERVES","NRNP20",NA,NA,"Singapore",1.300658319,103.795138
"PARKS","Rail Corridor","RESERVES","NRNP20",NA,NA,"Singapore",1.390279518,103.7535258
"PARKS","Rail Corridor","RESERVES","NRNP20",NA,NA,"Singapore",1.274451894,103.830392
"PARKS","Rail Corridor","RESERVES","NRNP20",NA,NA,"Singapore",1.315009629,103.7871932
"PARKS","Rail Corridor","RESERVES","NRNP20",NA,NA,"Singapore",1.278981084,103.8247375
"PARKS","Rail Corridor","RESERVES","NRNP20",NA,NA,"Singapore",1.302406275,103.7941942
"PARKS","Rail Corridor","RESERVES","NRNP20",NA,NA,"Singapore",1.294683784,103.798636
"PARKS","Rail Corridor","RESERVES","NRNP20",NA,NA,"Singapore",1.341451791,103.7792991
"PARKS","Rail Corridor","RESERVES","NRNP20",NA,NA,"Singapore",1.277981175,103.826125
"PARKS","Rail Corridor","RESERVES","NRNP20",NA,NA,"Singapore",1.28102845,103.8174521
"PARKS","Rail Corridor","RESERVES","NRNP20",NA,NA,"Singapore",1.317745503,103.7850261
"PARKS","Rail Corridor","RESERVES","NRNP20",NA,NA,"Singapore",1.407250771,103.7548612
"PARKS","Rail Corridor","RESERVES","NRNP20",NA,NA,"Singapore",1.305131898,103.7927013
"PARKS","Rail Corridor","RESERVES","NRNP20",NA,NA,"Singapore",1.288746709,103.7990875
"PARKS","Rail Corridor","RESERVES","NRNP20",NA,NA,"Singapore",1.399361552,103.7524546
"PARKS","Rail Corridor","RESERVES","NRNP20",NA,NA,"Singapore",1.33668761,103.7810757
"PARKS","Rail Corridor","RESERVES","NRNP20",NA,NA,"Singapore",1.342165303,103.7794782
"PARKS","Dairy Farm Nature Park","RESERVES","NRNP12",NA,NA,"Singapore",1.360463703,103.7729573
"PARKS","Dairy Farm Nature Park","RESERVES","NRNP12",NA,NA,"Singapore",1.363145303,103.7794023
"PARKS","LENTOR GROVE PG","RESERVES","NS513",NA,NA,"Singapore",1.386384692,103.8383407
"PARKS","LENTOR RD PG","RESERVES","NS514",NA,NA,"Singapore",1.388311197,103.8375769
"PARKS","Beting Bronok","RESERVES","NRNP24",NA,NA,"Singapore",1.436997406,104.0471814
"PARKS","Sungei Buloh Wetland Reserve","RESERVES","NRNP02",NA,NA,"Singapore",1.446380249,103.7245201
"PARKS","Kranji Marshes","RESERVES","NRNP29",NA,NA,"Singapore",1.419110534,103.7292559
"PARKS","Kranji Reservoir Park A","RESERVES","NRNP32",NA,NA,"Singapore",1.438094134,103.7428632
"PARKS","Kranji Reservoir Park A","RESERVES","NRNP32",NA,NA,"Singapore",1.439016332,103.7426572
"PARKS","Kranji Reservoir Park A","RESERVES","NRNP32",NA,NA,"Singapore",1.438715027,103.7425519
"PARKS","Bukit Batok Nature Park","RESERVES","NRNP17",NA,NA,"Singapore",1.350140111,103.7641972
"PARKS","YISHUN NEIGHBOURHOOD PK","RESERVES","NS517",NA,NA,"Singapore",1.437741804,103.8351673
"PARKS","PLATINA RD PG","RESERVES","NS518",NA,NA,"Singapore",1.427562044,103.8261141
"PARKS","GOODLINK PK PG","RESERVES","NS519",NA,NA,"Singapore",1.427297013,103.825338
"PARKS","SPRINGLEAF GARDEN PG","RESERVES","NS520",NA,NA,"Singapore",1.398046405,103.8223314
"PARKS","TOA PAYOH TOWN PK","RESERVES","ST500",NA,NA,"Singapore",1.330551902,103.8479143
"PARKS","SIGLAP LINEAR PK (JLN B'WAN-UPP EC RD)","RESERVES","EK517",NA,NA,"Singapore",1.314571068,103.9273345
"PARKS","SIGLAP LINEAR PK (JLN B'WAN-UPP EC RD)","RESERVES","EK517",NA,NA,"Singapore",1.317383785,103.9260203
"PARKS","SIGLAP LINEAR PK (JLN B'WAN-UPP EC RD)","RESERVES","EK517",NA,NA,"Singapore",1.319930655,103.9248377
"PARKS","SIGLAP LINEAR PK (JLN B'WAN-UPP EC RD)","RESERVES","EK517",NA,NA,"Singapore",1.321307504,103.9241989
"PARKS","Chu Yen Playground","RESERVES","WB529",NA,NA,"Singapore",1.358640518,103.7589728
"PARKS","Jalan Dermawan Playground","RESERVES","WB534",NA,NA,"Singapore",1.360636828,103.758613
"PARKS","BUTTERFLY AVE PG","RESERVES","NP540",NA,NA,"Singapore",1.334470537,103.8773555
"PARKS","SUN PLAZA PK","RESERVES","ET503",NA,NA,"Singapore",1.358885489,103.9437164
"PARKS","TANAH MERAH PG","RESERVES","EC505",NA,NA,"Singapore",1.328941403,103.9469422
"PARKS","MARIAM WALK PG","RESERVES","EC506",NA,NA,"Singapore",1.359539776,103.9685444
"PARKS","MARIAM WAY PG","RESERVES","EC521",NA,NA,"Singapore",1.361964413,103.9661901
"PARKS","BEDOK TERRACE PG","RESERVES","EC522",NA,NA,"Singapore",1.32554548,103.9474836
"PARKS","KEW DR PG","RESERVES","EC523",NA,NA,"Singapore",1.32075089,103.9517516
"PARKS","MOUNT EMILY PK","RESERVES","ST522",NA,NA,"Singapore",1.304450827,103.8476394
"PARKS","ANN SIANG HILL PK","RESERVES","SO519",NA,NA,"Singapore",1.280792575,103.8462693
"PARKS","THOMSON RD PG","RESERVES","ST508",NA,NA,"Singapore",1.316272164,103.8438503
"PARKS","JLGC: CHINESE GARDEN","RESERVES","PKWR019",NA,NA,"Singapore",1.33697285,103.730674
"PARKS","SIGLAP LINEAR PK (UPP EC RD-M PARADE)","RESERVES","EK510",NA,NA,"Singapore",1.311254135,103.9284166
"PARKS","LUXUS HILLS PARK","RESERVES","PKNE025",NA,NA,"Singapore",1.379526226,103.8750314
"PARKS","PASIR PANJANG NURSERY","RESERVES","HN001",NA,NA,"Singapore",1.28246217,103.7941161
"PARKS","BIDADARI PK","RESERVES","PKCR018",NA,NA,"Singapore",1.340679973,103.8743889
"PARKS","PUNGGOL PK","RESERVES","NP500",NA,NA,"Singapore",1.37716463,103.8985947
"PARKS","ISLAND GDNS WALK PG","RESERVES","NA539",NA,NA,"Singapore",1.362022202,103.8284125
"PARKS","JUPITER PLAYGROUND","RESERVES","NA541",NA,NA,"Singapore",1.3582617,103.8252044
"PARKS","PEMIMPIN PLACE PG","RESERVES","NA542",NA,NA,"Singapore",1.3533155,103.84276
"PARKS","CLOVER CRESCENT PG","RESERVES","NA544",NA,NA,"Singapore",1.35102536,103.8446019
"PARKS","CLOVER CRESCENT PG","RESERVES","NA544",NA,NA,"Singapore",1.350702833,103.8442538
"PARKS","THE INGLEWOOD PG","RESERVES","NA545",NA,NA,"Singapore",1.361055338,103.8301107
"PARKS","CARMICHAEL RD PG","RESERVES","NA547",NA,NA,"Singapore",1.342672526,103.8631003
"PARKS","SURIN AVE NEIGHBOURHOOD PK","RESERVES","NP509",NA,NA,"Singapore",1.355546767,103.8841091
"PARKS","THRIFT DR OS","RESERVES","NP512",NA,NA,"Singapore",1.343866202,103.8832283
"PARKS","AROOZOO AVE PG","RESERVES","NP513",NA,NA,"Singapore",1.35519703,103.8859554
"PARKS","KATONG PK","RESERVES","EK554",NA,NA,"Singapore",1.297184688,103.8863563
"PARKS","KATONG PK","RESERVES","EK554",NA,NA,"Singapore",1.296308712,103.8871607
"PARKS","COUNTRYSIDE PG","RESERVES","NS508",NA,NA,"Singapore",1.390127589,103.8385636
"PARKS","SARACA RD PG","RESERVES","NP528",NA,NA,"Singapore",1.38658045,103.8586648
"PARKS","GREENFIELD DR PG","RESERVES","EK519",NA,NA,"Singapore",1.313041768,103.9176528
"PARKS","ANG MO KIO TOWN GARDEN EAST","RESERVES","NA500",NA,NA,"Singapore",1.370692183,103.8504768
"PARKS","DEDAP PLACE PG","RESERVES","NP529",NA,NA,"Singapore",1.387787693,103.8684353
"PARKS","TANJONG KATONG RD SOUTH PG","RESERVES","EK511",NA,NA,"Singapore",1.300254701,103.8972921
"PARKS","JLN BULOH PERINDU PG","RESERVES","EK512",NA,NA,"Singapore",1.308485737,103.919389
"PARKS","MEYER RD PG","RESERVES","EK513",NA,NA,"Singapore",1.298570258,103.8942037
"PARKS","Lakeside Grove Fitness Corner","RESERVES","WJ517",NA,NA,"Singapore",1.33980042,103.7171807
"PARKS","Jambol Place Park","RESERVES","WP504",NA,NA,"Singapore",1.279109034,103.7901866
"PARKS","Chwee Chian Playground","RESERVES","WP505",NA,NA,"Singapore",1.279432422,103.788908
"PARKS","SENGKANG RIVERSIDE PK","RESERVES","NP544",NA,NA,"Singapore",1.399503155,103.8842361
"PARKS","SENGKANG RIVERSIDE PK","RESERVES","NP544",NA,NA,"Singapore",1.396636502,103.8835696
"PARKS","SENGKANG RIVERSIDE PK","RESERVES","NP544",NA,NA,"Singapore",1.399429613,103.8878401
"PARKS","SENGKANG RIVERSIDE PK","RESERVES","NP544",NA,NA,"Singapore",1.394831622,103.8825848
"PARKS","KOON SENG PARK","RESERVES","PKCR035",NA,NA,"Singapore",1.311048035,103.9028311
"PARKS","TAI KENG PLACE PG","RESERVES","NP514",NA,NA,"Singapore",1.344973135,103.8847771
"PARKS","JLN KELICHAP PG","RESERVES","NP515",NA,NA,"Singapore",1.346791139,103.8818286
"PARKS","JLN SELASEH PG","RESERVES","NP516",NA,NA,"Singapore",1.385605305,103.8733799
"PARKS","MIMOSA RD PG","RESERVES","NP518",NA,NA,"Singapore",1.384272178,103.862871
"PARKS","MUGLISTON PK PG","RESERVES","NP520",NA,NA,"Singapore",1.385421132,103.8778929
"PARKS","GOLDHILL AVE PG","RESERVES","ST518",NA,NA,"Singapore",1.321096248,103.8331477
"PARKS","GENTLE DR PG","RESERVES","ST519",NA,NA,"Singapore",1.32036811,103.8406836
"PARKS","NOVENA PK","RESERVES","ST520",NA,NA,"Singapore",1.322292015,103.8428175
"PARKS","PAYA LEBAR ROAD PARK","RESERVES","PKNE033",NA,NA,"Singapore",1.332862686,103.8885672
"PARKS","UPPER SERANGOON PARK","RESERVES","PKNR033",NA,NA,"Singapore",1.351627293,103.875192
"PARKS","PARK AT SEMBAWANG ALLEY","RESERVES","WT519",NA,NA,"Singapore",1.448723792,103.8190046
"PARKS","JLN SENDUDOK PARK","RESERVES","WT520",NA,NA,"Singapore",1.443805856,103.8272033
"PARKS","Bukit Chermin Boardwalk","RESERVES","NRNP19",NA,NA,"Singapore",1.265167469,103.8081658
"PARKS","Pulau Sekudu","RESERVES","NRNP22",NA,NA,"Singapore",1.404152776,103.9880028
"PARKS","Pulau Unum","RESERVES","NRNP23",NA,NA,"Singapore",1.4330113,104.05377
"PARKS","TURNHOUSE PK","RESERVES","EC532",NA,NA,"Singapore",1.389940149,103.9789904
"PARKS","MAPLE LANE PARK","RESERVES","WB549",NA,NA,"Singapore",1.33022121,103.7926575
"PARKS","MAPLE LANE PARK","RESERVES","WB549",NA,NA,"Singapore",1.329030208,103.8145665
"PARKS","HOLLAND GREEN LINEAR PARK","RESERVES","WB550",NA,NA,"Singapore",1.327381523,103.7831568
"PARKS","HOLLAND GREEN LINEAR PARK","RESERVES","WB550",NA,NA,"Singapore",1.326949336,103.7878733
"PARKS","HOLLAND GREEN LINEAR PARK","RESERVES","WB550",NA,NA,"Singapore",1.327615862,103.7898426
"PARKS","HOLLAND GREEN LINEAR PARK","RESERVES","WB550",NA,NA,"Singapore",1.326553637,103.7865504
"PARKS","HOLLAND GREEN LINEAR PARK","RESERVES","WB550",NA,NA,"Singapore",1.326538842,103.7889148
"PARKS","HORTPARK","RESERVES","HH020",NA,NA,"Singapore",1.279067294,103.7994603
"PARKS","HORTPARK","RESERVES","HH020",NA,NA,"Singapore",1.28004475,103.7961857
"PARKS","Lower Peirce Reservoir Park","RESERVES","NRNP07",NA,NA,"Singapore",1.369015771,103.8265943
"PARKS","LIMAU VILLAS PG","RESERVES","EC530",NA,NA,"Singapore",1.323858477,103.9504405
"PARKS","CHANGI HEIGHTS PG","RESERVES","EC531",NA,NA,"Singapore",1.362875838,103.9721113
"PARKS","SPRINGLEAF AVE PG","RESERVES","NS522",NA,NA,"Singapore",1.400879275,103.8224589
"PARKS","JLN DAUD INTERIM PK","RESERVES","PKER009",NA,NA,"Singapore",1.325572111,103.9065235
"PARKS","JLN EUNOS INTERIM PK","RESERVES","PKER010",NA,NA,"Singapore",1.324930006,103.9060096
"PARKS","JLN AWANG INTERIM PK","RESERVES","PKER011",NA,NA,"Singapore",1.323882559,103.9058593
"PARKS","JLN YASIN INTERIM PK","RESERVES","PKER012",NA,NA,"Singapore",1.321378085,103.9055212
"PARKS","SIXTH AVE PG","RESERVES","WB511",NA,NA,"Singapore",1.322436019,103.7912876
"PARKS","KING'S DR PG","RESERVES","WB512",NA,NA,"Singapore",1.319094038,103.8060607
"PARKS","MAYFLOWER CRESCENT PG","RESERVES","NA512",NA,NA,"Singapore",1.372724031,103.8395457
"PARKS","POH HUAT RD PG","RESERVES","NP530",NA,NA,"Singapore",1.366922583,103.8815874
"PARKS","SELETAR TERRACE PG","RESERVES","NP532",NA,NA,"Singapore",1.381467393,103.8687733
"PARKS","ST ANNE'S WOOD PG","RESERVES","NP533",NA,NA,"Singapore",1.391629187,103.9037539
"PARKS","Yunnan Park","RESERVES","WJ513",NA,NA,"Singapore",1.33751938,103.6929168
"PARKS","Lorong Kemunchup Playground","RESERVES","PKWR009",NA,NA,"Singapore",1.360395611,103.760941
"PARKS","GANGES AVE OS","RESERVES","WT512",NA,NA,"Singapore",1.290768555,103.831799
"PARKS","LENTOR WALK PG","RESERVES","NS507",NA,NA,"Singapore",1.388605371,103.8383754
"PARKS","FLORISSA PK PG","RESERVES","NS510",NA,NA,"Singapore",1.386970904,103.8350692
"PARKS","SIANG KUANG AVE INTERIM PK","RESERVES","NP546",NA,NA,"Singapore",1.329826403,103.873065
"PARKS","WOODLANDS WATERFRONT PK","RESERVES","PKNR001",NA,NA,"Singapore",1.453070337,103.7803757
"PARKS","WOODLANDS WATERFRONT PK","RESERVES","PKNR001",NA,NA,"Singapore",1.450057272,103.7734988
"PARKS","WOODLANDS WATERFRONT PK","RESERVES","PKNR001",NA,NA,"Singapore",1.45118605,103.7767424
"PARKS","INTERIM PK AT LENGKONG ENAM","RESERVES","PKER003",NA,NA,"Singapore",1.327428048,103.9147263
"PARKS","Jalan Tekukor Playground","RESERVES","WB535",NA,NA,"Singapore",1.346151045,103.7667715
"PARKS","Highgate Walk Playground","RESERVES","WB537",NA,NA,"Singapore",1.340477917,103.7660648
"PARKS","EAST COAST PARK AREA F","RESERVES","EE505",NA,NA,"Singapore",1.309712193,103.9429646
"PARKS","LORONG TANGGAM PK","RESERVES","NP547",NA,NA,"Singapore",1.399015949,103.8737819
"PARKS","CHANGI POINT PROMENADE","RESERVES","EC593",NA,NA,"Singapore",1.390163115,103.9892677
"PARKS","CHANGI POINT WATERFRONT PK","RESERVES","EC594",NA,NA,"Singapore",1.3905142,103.9880885
"PARKS","CHANGI PT FERRY TERMINAL","RESERVES","EC503",NA,NA,"Singapore",1.391188877,103.9873312
"PARKS","EAST COAST PARK AREA G","RESERVES","EE506",NA,NA,"Singapore",1.313446002,103.9578535
"PARKS","PARRY AVE INTERIM PK","RESERVES","NP538",NA,NA,"Singapore",1.363973125,103.8811817
"PARKS","PARRY AVE INTERIM PK","RESERVES","NP538",NA,NA,"Singapore",1.363586627,103.880949
"PARKS","KALLANG RIVERSIDE PK","RESERVES","ST501",NA,NA,"Singapore",1.307231468,103.8678881
"PARKS","KALLANG RIVERSIDE PK","RESERVES","ST501",NA,NA,"Singapore",1.307520621,103.8704437
"PARKS","KALLANG RIVERSIDE PK","RESERVES","ST501",NA,NA,"Singapore",1.30569624,103.8693196
"PARKS","KALLANG RIVERSIDE PK","RESERVES","ST501",NA,NA,"Singapore",1.306765715,103.8704261
"PARKS","REALTY PARK","RESERVES","PKNE031",NA,NA,"Singapore",1.367982967,103.8905319
"PARKS","VENUS GREEN","RESERVES","PKCR029",NA,NA,"Singapore",1.358642398,103.8272712
"PARKS","KHEAM HOCK PARK","RESERVES","PKCR022",NA,NA,"Singapore",1.330421601,103.8192271
"PARKS","DUCHESS PK","RESERVES","WB545",NA,NA,"Singapore",1.32428332,103.8054769
"PARKS","DUXTON PLAIN PK","RESERVES","SO507",NA,NA,"Singapore",1.280405902,103.841316
"PARKS","DUXTON PLAIN PK","RESERVES","SO507",NA,NA,"Singapore",1.277477042,103.8419268
"PARKS","BEDOK TOWN PK","RESERVES","EK500",NA,NA,"Singapore",1.335124893,103.9252994
"PARKS","CHILTERN DR INTERIM PK","RESERVES","PKNE020",NA,NA,"Singapore",1.348567764,103.8619979
"PARKS","SPRINGSIDE PK","RESERVES","NS526",NA,NA,"Singapore",1.405822218,103.8206175
"PARKS","SPRINGSIDE PK","RESERVES","NS526",NA,NA,"Singapore",1.406379956,103.820218
"PARKS","TELOK KURAU PK","RESERVES","EK515",NA,NA,"Singapore",1.315368794,103.9142979
"PARKS","TELOK KURAU PK","RESERVES","EK515",NA,NA,"Singapore",1.316186385,103.9139555
"PARKS","JLN KAYU PK","RESERVES","PKNE001",NA,NA,"Singapore",1.397994005,103.872903
"PARKS","THOMSON WALK PG","RESERVES","NA521",NA,NA,"Singapore",1.375956687,103.8324884
"PARKS","YIO CHU KANG GARDENS PG","RESERVES","NA522",NA,NA,"Singapore",1.380680173,103.8374871
"PARKS","SUNRISE TERRACE OS","RESERVES","NA523",NA,NA,"Singapore",1.388232863,103.8560997
"PARKS","CACTUS RD PG","RESERVES","NA524",NA,NA,"Singapore",1.390146584,103.8521879
"PARKS","MEI HWAN DR PG","RESERVES","NA530",NA,NA,"Singapore",1.35344538,103.8634414
"PARKS","TAVISTOCK AVE PK","RESERVES","NA532",NA,NA,"Singapore",1.370198571,103.8654821
"PARKS","CHUAN WALK PG","RESERVES","NA533",NA,NA,"Singapore",1.357207086,103.8675741
"PARKS","COLCHESTER GROVE OS","RESERVES","NA534",NA,NA,"Singapore",1.357564302,103.8674479
"PARKS","BINCHANG RISE PG","RESERVES","NA535",NA,NA,"Singapore",1.348699164,103.8436143
"PARKS","TEACHER`S ESTATE PG","RESERVES","NA519",NA,NA,"Singapore",1.382008743,103.8292058
"PARKS","Upper Peirce Reservoir Park","RESERVES","NRNP06",NA,NA,"Singapore",1.373407541,103.8118456
"PARKS","Thomson Nature Park","RESERVES","NRNP08",NA,NA,"Singapore",1.382726123,103.8219667
"PARKS","Windsor Nature Park","RESERVES","NRNP09",NA,NA,"Singapore",1.35709943,103.8228013
"PARKS","RAFFLES PLACE PK","RESERVES","SO509",NA,NA,"Singapore",1.283945515,103.851482
"PARKS","WILKINSON INTERIM PK","RESERVES","EK592",NA,NA,"Singapore",1.301709125,103.887164
"PARKS","Zhenghua Nature Park","RESERVES","NRNP15",NA,NA,"Singapore",1.368024606,103.7782713
"PARKS","Zhenghua Nature Park","RESERVES","NRNP15",NA,NA,"Singapore",1.381594958,103.7753003
"PARKS","Zhenghua Nature Park","RESERVES","NRNP15",NA,NA,"Singapore",1.385668506,103.7734836
"PARKS","Zhenghua Nature Park","RESERVES","NRNP15",NA,NA,"Singapore",1.373453771,103.7772178
"PARKS","NERAM CRESCENT PG","RESERVES","NP521",NA,NA,"Singapore",1.385588567,103.8657428
"PARKS","Pavilion Park Playground","RESERVES","WB541",NA,NA,"Singapore",1.372249057,103.7520571
"PARKS","Westwood Park Playground","RESERVES","WJ515",NA,NA,"Singapore",1.35174943,103.7010696
"PARKS","Westville Playground","RESERVES","WJ516",NA,NA,"Singapore",1.353646645,103.6990793
"PARKS","FORT CANNING PARK","RESERVES","SF506",NA,NA,"Singapore",1.294316007,103.8466095
"PARKS","Burgundy Crescent Playground","RESERVES","WB540",NA,NA,"Singapore",1.339732998,103.7610071
"PARKS","JUBILEE PARK (FCP)","RESERVES","ST526",NA,NA,"Singapore",1.293314862,103.8447837
"PARKS","Kim Pong Park","RESERVES","WT513",NA,NA,"Singapore",1.283602156,103.8297443
"PARKS","Jalan Sembilang Park","RESERVES","PKCR017",NA,NA,"Singapore",1.356562872,103.834017
"PARKS","SENNETT AVE OS","RESERVES","EC533",NA,NA,"Singapore",1.318804001,103.9394005
"PARKS","JLN LIMAU KASTURI OS","RESERVES","EC534",NA,NA,"Singapore",1.324449339,103.9462215
"PARKS","PK VILLAS TERRACE PG","RESERVES","NP534",NA,NA,"Singapore",1.368960367,103.879954
"PARKS","DEW GARDEN","RESERVES","NP537",NA,NA,"Singapore",1.399218107,103.871086
"PARKS","RICHARDS AVE PK","RESERVES","NP539",NA,NA,"Singapore",1.360892946,103.8821327
"PARKS","GOLDEN RISE PG","RESERVES","WB532",NA,NA,"Singapore",1.336268815,103.7648947
"PARKS","ARTHUR PK","RESERVES","EK527",NA,NA,"Singapore",1.30391282,103.8882026
"PARKS","GUILLEMARD RD OS","RESERVES","EK530",NA,NA,"Singapore",1.314540943,103.8924107
"PARKS","JOO CHIAT TERRACE PK","RESERVES","EK595",NA,NA,"Singapore",1.31438278,103.9017362
"PARKS","EMPRESS PLACE","RESERVES","SO503",NA,NA,"Singapore",1.286927552,103.8519999
"PARKS","EMPRESS PLACE","RESERVES","SO503",NA,NA,"Singapore",1.287829442,103.8520095
"PARKS","EMPRESS PLACE","RESERVES","SO503",NA,NA,"Singapore",1.288049502,103.8514186
"PARKS","EMPRESS PLACE","RESERVES","SO503",NA,NA,"Singapore",1.2881238,103.8511057
"PARKS","VILLA VERDE PK","RESERVES","NW511",NA,NA,"Singapore",1.389895308,103.752383
"PARKS","VILLA VERDE PK","RESERVES","NW511",NA,NA,"Singapore",1.392997804,103.7524772
"PARKS","WATERBOAT HOUSE GARDEN","RESERVES","SO516",NA,NA,"Singapore",1.287328171,103.8534619
"PARKS","TELOK AYER GREEN","RESERVES","SO518",NA,NA,"Singapore",1.281432455,103.8476382
"PARKS","Bishan-Ang Mo Kio Park (River Plains)","RESERVES","NA503",NA,NA,"Singapore",1.361114716,103.8477055
"PARKS","Bishan-Ang Mo Kio Park (River Plains)","RESERVES","NA503",NA,NA,"Singapore",1.360589093,103.8459538
"PARKS","LEGUNDI PK","RESERVES","PKNR017",NA,NA,"Singapore",1.441158542,103.8220867
"PARKS","JLN DAUD PK","RESERVES","PKER008",NA,NA,"Singapore",1.325851196,103.907102
"PARKS","EAST COAST PARK AREA A","RESERVES","EE500",NA,NA,"Singapore",1.294541058,103.8763776
"PARKS","THOMSON PK","RESERVES","NA536",NA,NA,"Singapore",1.354287379,103.8343646
"PARKS","PAYA LEBAR CRESCENT OS","RESERVES","NP511",NA,NA,"Singapore",1.349012693,103.8835745
"PARKS","HOLLAND VILLAGE PK","RESERVES","PKCR014",NA,NA,"Singapore",1.311672837,103.795638
"PARKS","CAMBRIDGE PARK","RESERVES","PKCR021",NA,NA,"Singapore",1.313660898,103.8468389
"PARKS","TRAS LINK PK","RESERVES","PKCR026",NA,NA,"Singapore",1.276456488,103.8437936
"PARKS","TRAS LINK PK","RESERVES","PKCR026",NA,NA,"Singapore",1.276370805,103.8443485
"PARKS","CASHEW RD INTERIM PK","RESERVES","PKWR020",NA,NA,"Singapore",1.372414332,103.7679878
"PARKS","DHOBY GHAUT GREEN","RESERVES","ST532",NA,NA,"Singapore",1.298380373,103.8458913
"PARKS","WARINGIN PK PG","RESERVES","EK526",NA,NA,"Singapore",1.322950052,103.9191903
"PARKS","JALAN ISHAK PARK","RESERVES","PKER014",NA,NA,"Singapore",1.324405229,103.9071549
"PARKS","JALAN ISHAK PARK","RESERVES","PKER014",NA,NA,"Singapore",1.325224732,103.9070828
"PARKS","LORONG MARICAN PARK","RESERVES","PKER015",NA,NA,"Singapore",1.323935336,103.9078968
"PARKS","LORONG MARZUKI PARK","RESERVES","PKER016",NA,NA,"Singapore",1.323797237,103.9083254
"PARKS","HOW SUN LINEAR PARK","RESERVES","PKCR036",NA,NA,"Singapore",1.345374923,103.8782353
"PARKS","HOW SUN LINEAR PARK","RESERVES","PKCR036",NA,NA,"Singapore",1.344539147,103.8766814
"PARKS","HOW SUN LINEAR PARK","RESERVES","PKCR036",NA,NA,"Singapore",1.344192994,103.8778436
"PARKS","Jalan Singa Park","RESERVES","PKER019",NA,NA,"Singapore",1.330953736,103.9069075
"PARKS","BOUGAINVILLEA PK","RESERVES","WB504",NA,NA,"Singapore",1.326733214,103.8076299
"PARKS","GREENRIDGE CRESCENT PG","RESERVES","WB533",NA,NA,"Singapore",1.334278983,103.7657469
"PARKS","GREENRIDGE CRESCENT PG","RESERVES","WB533",NA,NA,"Singapore",1.334623023,103.7657586
"PARKS","HOLLAND GROVE VIEW FC","RESERVES","WB522",NA,NA,"Singapore",1.312506453,103.7827508
"PARKS","HOLLAND GROVE VIEW PG","RESERVES","WB523",NA,NA,"Singapore",1.312951861,103.7812419
"PARKS","HOLLAND GREEN PG","RESERVES","WB524",NA,NA,"Singapore",1.326834708,103.7828092
"PARKS","MAYFAIR PK","RESERVES","WB525",NA,NA,"Singapore",1.341497378,103.780872
"PARKS","CHENG SOON GARDEN PG","RESERVES","WB528",NA,NA,"Singapore",1.33583716,103.7716454
"PARKS","ENG KONG GARDEN PG","RESERVES","WB530",NA,NA,"Singapore",1.336981491,103.7691072
"PARKS","ENG KONG PLACE FC","RESERVES","WB531",NA,NA,"Singapore",1.334739707,103.7672471
"PARKS","ADMIRALTY PK","RESERVES","NW512",NA,NA,"Singapore",1.448411971,103.7800139
"PARKS","ADMIRALTY PK","RESERVES","NW512",NA,NA,"Singapore",1.443715111,103.7830415
"PARKS","ADMIRALTY PK","RESERVES","NW512",NA,NA,"Singapore",1.446711291,103.778974
"PARKS","ADMIRALTY PK","RESERVES","NW512",NA,NA,"Singapore",1.450182401,103.7770901
"PARKS","ADMIRALTY PK","RESERVES","NW512",NA,NA,"Singapore",1.450698183,103.7778057
"PARKS","THONG SOON GREEN PG","RESERVES","NS521",NA,NA,"Singapore",1.400025918,103.8183179
"PARKS","MT BATTEN RD/OLD AIRPORT RD OS","RESERVES","EK533",NA,NA,"Singapore",1.305811907,103.8832496
"PARKS","TELOK KURAU LORONG N PK","RESERVES","PKER006",NA,NA,"Singapore",1.310325241,103.9128047
"PARKS","OPERA ESTATE FOOTBALL FIELD","RESERVES","EK523",NA,NA,"Singapore",1.320095349,103.9244527
"PARKS","SUNRISE CLOSE PG","RESERVES","NA515",NA,NA,"Singapore",1.387032935,103.8574787
"PARKS","ESPLANADE PK","RESERVES","SO506",NA,NA,"Singapore",1.289487837,103.8536632
"PARKS","LORONG SARINA INTERIM PK","RESERVES","EK749",NA,NA,"Singapore",1.32014741,103.9061017
"PARKS","LORONG 40 GEYLANG PG","RESERVES","EK529",NA,NA,"Singapore",1.313646122,103.8893628
"PARKS","SEMBAWANG PK","RESERVES","NS500",NA,NA,"Singapore",1.461361631,103.8365007
"PARKS","JLN PARI DEDAP PG","RESERVES","EC514",NA,NA,"Singapore",1.332998417,103.9439086
"PARKS","CHANGI BEACH PK","RESERVES","EC500",NA,NA,"Singapore",1.382844488,103.9993953
"PARKS","CHANGI BEACH PK","RESERVES","EC500",NA,NA,"Singapore",1.371406908,104.0055934
"PARKS","CLOVER WAY PG","RESERVES","NA537",NA,NA,"Singapore",1.350210491,103.8460705
"PARKS","CLOVER WAY PG","RESERVES","NA537",NA,NA,"Singapore",1.349851482,103.846011
"PARKS","BUNGA RAMPAI PK","RESERVES","PKCR015",NA,NA,"Singapore",1.34050131,103.8842559
"PARKS","TANAH PUTEH PK","RESERVES","PKER005",NA,NA,"Singapore",1.315870044,103.931377
"PARKS","LILAC DR PG","RESERVES","NP517",NA,NA,"Singapore",1.381133601,103.8610978
"PARKS","SHANGRI-LA PLAYGROUND","RESERVES","NA514",NA,NA,"Singapore",1.371097371,103.8324129
"PARKS","GELENGGANG PARK","RESERVES","NA510",NA,NA,"Singapore",1.373487725,103.8298295
"PARKS","MACPHERSON LINEAR PK","RESERVES","PKCR009",NA,NA,"Singapore",1.333217358,103.8818072
"PARKS","KANDIS GARDEN","RESERVES","NS523",NA,NA,"Singapore",1.456184081,103.8356893
"PARKS","LIMAU GARDEN PG","RESERVES","EC524",NA,NA,"Singapore",1.322468226,103.950744
"PARKS","OASIS@MULBERRY PK","RESERVES","NP545",NA,NA,"Singapore",1.332798333,103.8784343
"PARKS","EAST COAST PARK AREA E","RESERVES","EE504",NA,NA,"Singapore",1.306719374,103.9335983
"PARKS","BOUNDARY ROAD PARK","RESERVES","WT518",NA,NA,"Singapore",1.354039932,103.8748074
"PARKS","MERAGI RD PG","RESERVES","EC516",NA,NA,"Singapore",1.3441778,103.9602305
"PARKS","PESARI WALK PG","RESERVES","EC518",NA,NA,"Singapore",1.324433442,103.9539794
"PARKS","Jalan Mas Kuning Playground","RESERVES","WJ518",NA,NA,"Singapore",1.307837124,103.7635942
"PARKS","Jalan Mas Puteh Playground","RESERVES","WJ519",NA,NA,"Singapore",1.308970557,103.7620195
"PARKS","Pandan Reservoir Fitness Corner","RESERVES","WJ520",NA,NA,"Singapore",1.3175587,103.7486829
"PARKS","Taman Mas Merah Playground","RESERVES","WJ521",NA,NA,"Singapore",1.308733322,103.7647221
"PARKS","West Coast Green Playground","RESERVES","WJ522",NA,NA,"Singapore",1.3156314,103.7562691
"PARKS","West Coast Place Playground","RESERVES","WJ523",NA,NA,"Singapore",1.314262091,103.7584848
"PARKS","Faber Hills Playground","RESERVES","WJ524",NA,NA,"Singapore",1.319780432,103.7579804
"PARKS","Faber Heights Open Space","RESERVES","WJ525",NA,NA,"Singapore",1.32252788,103.7575865
"PARKS","KIM SENG PK","RESERVES","ST530",NA,NA,"Singapore",1.292724953,103.8350213
"PARKS","TELOK AYER PK","RESERVES","SO511",NA,NA,"Singapore",1.278086833,103.8466518
"PARKS","WOODLANDS TOWN PK EAST","RESERVES","NW504",NA,NA,"Singapore",1.436657781,103.7792433
"PARKS","CHANGI WEST BOARDWALK (CHANGI BC)","RESERVES","EC502",NA,NA,"Singapore",1.391439825,103.9758509
"PARKS","CHANGI WEST BOARDWALK (CHANGI BC)","RESERVES","EC502",NA,NA,"Singapore",1.390554977,103.9742742
"PARKS","CHANGI WEST BOARDWALK (CHANGI BC)","RESERVES","EC502",NA,NA,"Singapore",1.392426861,103.9789737
"PARKS","CHANGI WEST BOARDWALK (CHANGI BC)","RESERVES","EC502",NA,NA,"Singapore",1.392419568,103.9799066
"PARKS","CHANGI WEST BOARDWALK (CHANGI BC)","RESERVES","EC502",NA,NA,"Singapore",1.392370922,103.9783214
"PARKS","CHANGI WEST BOARDWALK (CHANGI BC)","RESERVES","EC502",NA,NA,"Singapore",1.392296203,103.97766
"PARKS","Jurong Central Park","RESERVES","WJ527",NA,NA,"Singapore",1.338110801,103.7079223
"PARKS","Jurong Central Park","RESERVES","WJ527",NA,NA,"Singapore",1.335804084,103.706957
"PARKS","SOO CHOW WALK PG","RESERVES","NA543",NA,NA,"Singapore",1.353680788,103.8320382
"PARKS","TAI HWAN TERRACE PG","RESERVES","NA531",NA,NA,"Singapore",1.356348795,103.8603376
"PARKS","TAI HWAN TERRACE PG","RESERVES","NA531",NA,NA,"Singapore",1.35584364,103.8607033
"PARKS","EAST COAST PARK AREA B","RESERVES","EE501",NA,NA,"Singapore",1.2960255,103.8967899
"PARKS","GREENWOOD CRESCENT PG","RESERVES","WB506",NA,NA,"Singapore",1.335519263,103.8054606
"PARKS","ORCHID VILLAGE PG","RESERVES","WB507",NA,NA,"Singapore",1.335726569,103.8017801
"PARKS","SHELFORD RD PG","RESERVES","WB508",NA,NA,"Singapore",1.328354023,103.8104851
"PARKS","WATTEN HEIGHTS PG","RESERVES","WB509",NA,NA,"Singapore",1.331612272,103.8086866
"PARKS","WATTEN HEIGHTS PG","RESERVES","WB509",NA,NA,"Singapore",1.331712111,103.8102121
"PARKS","NAMLY PK","RESERVES","WB510",NA,NA,"Singapore",1.323295248,103.796581
"PARKS","BANGSAWAN PK","RESERVES","EK520",NA,NA,"Singapore",1.321186137,103.9238001
"PARKS","AIDA PK","RESERVES","EK521",NA,NA,"Singapore",1.319386254,103.9279213
"PARKS","JLN SENANG PG","RESERVES","EK522",NA,NA,"Singapore",1.32896697,103.9156275
"PARKS","TAMAN KEMBANGAN PG","RESERVES","EK525",NA,NA,"Singapore",1.325003284,103.9144007
"PARKS","UNIVERSITY RD PK","RESERVES","WB505",NA,NA,"Singapore",1.325448493,103.8176668
"PARKS","YOUTH OLYMPIC PK","RESERVES","PKCR001",NA,NA,"Singapore",1.288953344,103.860431
"PARKS","ST MICHAEL'S PG","RESERVES","PKCR019",NA,NA,"Singapore",1.326216937,103.8648532
"PARKS","ST MICHAEL's FC","RESERVES","PKCR020",NA,NA,"Singapore",1.326481095,103.8651246
"PARKS","JLN PINTAU PG","RESERVES","NA540",NA,NA,"Singapore",1.353952669,103.8399638
"PARKS","CASHEW RD PG","RESERVES","NW505",NA,NA,"Singapore",1.370662895,103.7646894
"PARKS","CHESTNUT DR PG","RESERVES","NW506",NA,NA,"Singapore",1.367624307,103.7688337
"PARKS","Clementi Woods Park","RESERVES","WJ501",NA,NA,"Singapore",1.2998284,103.7675563
"PARKS","Lakeside Grove Playground","RESERVES","WJ514",NA,NA,"Singapore",1.340081604,103.718607
"PARKS","TAI KENG GARDENS PG","RESERVES","NP510",NA,NA,"Singapore",1.346185058,103.8849257
"PARKS","CASHEW LINK PG","RESERVES","NW507",NA,NA,"Singapore",1.371333724,103.7688982
"PARKS","JLN RASOK PK","RESERVES","NW508",NA,NA,"Singapore",1.416585493,103.7590331
"PARKS","ALMOND CRESCENT PG","RESERVES","NW509",NA,NA,"Singapore",1.373233137,103.7719648
"PARKS","HAZEL PK OS","RESERVES","NW510",NA,NA,"Singapore",1.371598236,103.763649
"PARKS","ANG MO KIO LINEAR PK (PLOT 2)","RESERVES","PKNE027",NA,NA,"Singapore",1.379363985,103.8718041
"PARKS","ANG MO KIO LINEAR PK (PLOT 3)","RESERVES","PKNE028",NA,NA,"Singapore",1.37924208,103.8687175
"PARKS","BROOK'S PARK","RESERVES","PKNR018",NA,NA,"Singapore",1.405591954,103.8230245
"PARKS","JLN KAYU INTERIM PK","RESERVES","PKNE030",NA,NA,"Singapore",1.398773589,103.8725492
"PARKS","CEYLON ROAD INTERIM PARK","RESERVES","PKCR023",NA,NA,"Singapore",1.309727522,103.8995091
"PARKS","HAIG WALK EXTENSION","RESERVES","PKCR024",NA,NA,"Singapore",1.310734644,103.8986419
"PARKS","ONAN ROAD GREEN SPACE","RESERVES","PKCR025",NA,NA,"Singapore",1.310097102,103.9007239
"PARKS","CORONATION PARK","RESERVES","PKCR010",NA,NA,"Singapore",1.321988453,103.7964216
"PARKS","PASIR RIS PK","RESERVES","ET500",NA,NA,"Singapore",1.381233874,103.9504815
"PARKS","JLN PELATOK OS","RESERVES","EC535",NA,NA,"Singapore",1.346175549,103.9609321
"PARKS","SUNSET WAY PK","RESERVES","WB513",NA,NA,"Singapore",1.32770323,103.7647961
"PARKS","SUNSET WAY PG","RESERVES","WB514",NA,NA,"Singapore",1.326624495,103.7663304
"PARKS","SUNSET HEIGHTS OS","RESERVES","WB515",NA,NA,"Singapore",1.327943663,103.7688825
"PARKS","CLEMENTI CRESCENT PG","RESERVES","WB516",NA,NA,"Singapore",1.323644477,103.7731641
"PARKS","HUA GUAN CRESCENT PG","RESERVES","WB517",NA,NA,"Singapore",1.336992672,103.7850509
"PARKS","GREENLEAF VIEW PK PG","RESERVES","WB518",NA,NA,"Singapore",1.322293207,103.7880751
"PARKS","GROVE LANE PG","RESERVES","WB519",NA,NA,"Singapore",1.313678853,103.7841541
"PARKS","JLN KEBAYA PG","RESERVES","WB520",NA,NA,"Singapore",1.314113061,103.7802439
"PARKS","MOUNT SINAI PLAIN PG","RESERVES","WB521",NA,NA,"Singapore",1.315673313,103.7811799
"PARKS","WAR MEMORIAL PK","RESERVES","ST529",NA,NA,"Singapore",1.292836695,103.8548243
"PARKS","SOMME RD PG","RESERVES","ST515",NA,NA,"Singapore",1.311517354,103.8581575
"PARKS","PASIR RIS TOWN PK","RESERVES","ET502",NA,NA,"Singapore",1.371518688,103.9524487
"PARKS","PASIR RIS TOWN PK","RESERVES","ET502",NA,NA,"Singapore",1.37249111,103.9509628
"PARKS","ELIAS TERRACE PG","RESERVES","ET509",NA,NA,"Singapore",1.372195164,103.9411056
"PARKS","CHUAN GREEN PG","RESERVES","NA507",NA,NA,"Singapore",1.360508228,103.8660418
"PARKS","ELLINGTON SQUARE PLAYGROUND","RESERVES","NA509",NA,NA,"Singapore",1.372024782,103.8345442
"PARKS","YISHUN POND PK","RESERVES","NS527",NA,NA,"Singapore",1.427755778,103.839647
"PARKS","YISHUN POND PK","RESERVES","NS527",NA,NA,"Singapore",1.426015151,103.8402563
"PARKS","YISHUN POND PK","RESERVES","NS527",NA,NA,"Singapore",1.425154217,103.8390798
"PARKS","YISHUN POND PK","RESERVES","NS527",NA,NA,"Singapore",1.427503163,103.8404985
"PARKS","GREEN LANE PARK","RESERVES","PKCR031",NA,NA,"Singapore",1.31091204,103.8922965
"PARKS","HAUS LINEAR PARK","RESERVES","PKNR025",NA,NA,"Singapore",1.364347676,103.8599899
"PARKS","SEMBAWANG HOT SPRING PARK","RESERVES","PKNR027",NA,NA,"Singapore",1.434309952,103.8226075
"PARKS","SEMBAWANG HOT SPRING PARK","RESERVES","PKNR027",NA,NA,"Singapore",1.434631928,103.8234772
"PARKS","LORONG ONG LYE PARK","RESERVES","PKCR034",NA,NA,"Singapore",1.347793691,103.8788149
"PARKS","IRAU DRIVE PLAYGROUND","RESERVES","PKNR031",NA,NA,"Singapore",1.462014831,103.8398999
"PARKS","CHANGI EAST BOARDWALK (CHANGI FERRY TER)","RESERVES","EC592",NA,NA,"Singapore",1.392231852,103.9838639
"PARKS","COLCHESTER GROVE INTERIM OS","RESERVES","PKNE026",NA,NA,"Singapore",1.356464145,103.866718
"PARKS","TIONG BAHRU PK","RESERVES","ST502",NA,NA,"Singapore",1.287901799,103.8240187
"PARKS","HOOPER RD PG","RESERVES","ST511",NA,NA,"Singapore",1.312348707,103.8431094
"PARKS","JLN PARI BURONG PG","RESERVES","EC513",NA,NA,"Singapore",1.333826271,103.9469408
"PARKS","KEMUNING PK","RESERVES","PKNR002",NA,NA,"Singapore",1.439293249,103.826948
"PARKS","KAMPONG GLAM PK","RESERVES","ST510",NA,NA,"Singapore",1.302699522,103.8629742
"PARKS","ROWELL RD OS","RESERVES","ST514",NA,NA,"Singapore",1.30843854,103.8548624
"PARKS","BENG WAN RD PG","RESERVES","ST516",NA,NA,"Singapore",1.323809184,103.8658383
"PARKS","BENG WAN RD PG","RESERVES","ST516",NA,NA,"Singapore",1.323248977,103.8653975
"PARKS","TANJONG PAGAR PK","RESERVES","SO517",NA,NA,"Singapore",1.276558126,103.8458043
"PARKS","HANDY RD OS","RESERVES","ST540",NA,NA,"Singapore",1.298995203,103.8477974
"PARKS","PUNGGOL WATERWAY PK","RESERVES","PKNE018",NA,NA,"Singapore",1.410256286,103.9048213
"PARKS","THE FOOTHILLS FORT CANNING PK","RESERVES","SF510",NA,NA,"Singapore",1.292109243,103.8457705
"PARKS","MERA TERRACE PG","RESERVES","EC510",NA,NA,"Singapore",1.347398388,103.9635193
"PARKS","MERA TERRACE PG","RESERVES","EC510",NA,NA,"Singapore",1.346894413,103.9633565
"PARKS","SUNBIRD CIRCLE PG","RESERVES","EC517",NA,NA,"Singapore",1.339094886,103.9582864
"PARKS","TAMPINES ECO GREEN PK","RESERVES","PKER001",NA,NA,"Singapore",1.363777578,103.9481833
"PARKS","SAVOY PK PG","RESERVES","WB538",NA,NA,"Singapore",1.33344165,103.7699438
"PARKS","CASHEW CRESCENT FC PG","RESERVES","NW514",NA,NA,"Singapore",1.372256847,103.7694859
"PARKS","PENANG RD OS","RESERVES","ST524",NA,NA,"Singapore",1.300076733,103.8412297
"PARKS","NORTH BRIDGE GARDEN","RESERVES","ST517",NA,NA,"Singapore",1.304126649,103.8621828
"PARKS","MAR THOMA ROAD PARK","RESERVES","PKCR032",NA,NA,"Singapore",1.327438306,103.8620869
"PARKS","SIAN TUAN INTERIM PARK","RESERVES","PKCR033",NA,NA,"Singapore",1.33862453,103.7862118
"PARKS","Victoria Park Playground","RESERVES","WB547",NA,NA,"Singapore",1.321936165,103.8018267
"PARKS","SENNETT AVE LINEAR PK","RESERVES","PKER013",NA,NA,"Singapore",1.31791769,103.9360295
"PARKS","MALCOLM PK","RESERVES","ST509",NA,NA,"Singapore",1.322596193,103.8268055
"PARKS","SG API API PK","RESERVES","ET507",NA,NA,"Singapore",1.378900026,103.9460758
"PARKS","HONG LIM PK","RESERVES","SO520",NA,NA,"Singapore",1.28638735,103.8466037
"PARKS","HONG LIM PK","RESERVES","SO520",NA,NA,"Singapore",1.287068351,103.8461808
"PARKS","ORCHARD FOUNTAIN CORNER","RESERVES","ST527",NA,NA,"Singapore",1.301598503,103.8375992
"PARKS","Telok Ayer Green","PLAYGROUND","Bounded by Amoy Street, Boon Tat Street and Telok Ayer Street",NA,NA,"Singapore",1.281465007,103.847644
"PARKS","Mayflower Crescent Playground","PLAYGROUND","At the junction of Mayflower Crescent and Mayflower Avenue",NA,NA,"Singapore",1.372718013,103.839569
"PARKS","Sunrise Drive Playground 1","PLAYGROUND","Located along Sunrise Drive",NA,NA,"Singapore",1.388305972,103.85737
"PARKS","Elias Terrace Playground","PLAYGROUND","Junction of Elias Terrace and Elias Green",NA,NA,"Singapore",1.372190016,103.941094
"PARKS","Kew Avenue Playground","PLAYGROUND","Junction of Kew Avenue and Kew Drive",NA,NA,"Singapore",1.321627004,103.948451
"PARKS","Greenfield Drive Playground","PLAYGROUND","Greenfield Drive",NA,NA,"Singapore",1.313034992,103.917656
"PARKS","Sun Plaza Park","PLAYGROUND","Along Tampines Avenue 7, Tampines Avenue 9",NA,NA,"Singapore",1.359264023,103.944482
"PARKS","Changi Point Ferry Terminal","PLAYGROUND","Near Lor Bekukong",NA,NA,"Singapore",1.391226001,103.987296
"PARKS","Shangri-La Playground","PLAYGROUND","Junction of Ang Mo Kio Ave 2 and Jalan Lanjut",NA,NA,"Singapore",1.371020982,103.832392
"PARKS","Opera Estate Football Field","PLAYGROUND","Swan Lake Avenue",NA,NA,"Singapore",1.32010101,103.924456
"PARKS","Lentor Vale Playground","PLAYGROUND","Junction of Lentor Vale and Lentor Way",NA,NA,"Singapore",1.388054016,103.836146
"PARKS","Limau Villas Playground","PLAYGROUND","End of Limau Terrace from Jalan Langgar Bedok",NA,NA,"Singapore",1.323851998,103.950395
"PARKS","Paya Lebar Crescent Open Space","PLAYGROUND","Central open space at round about along Paya lebar cresent (road)",NA,NA,"Singapore",1.348967012,103.883569
"PARKS","Mugliston Park Playground","PLAYGROUND","Junction of Gerald Drive & Mugliston Park",NA,NA,"Singapore",1.385445983,103.877906
"PARKS","Sungei Api Api Park","PLAYGROUND","Entrance via Pasir Ris Drive 3, Riverina View and Elias Road",NA,NA,"Singapore",1.378732994,103.945667
"PARKS","Yio Chu Kang Gardens Playground","PLAYGROUND","Turn right after Yio Chu Kang estate entrance",NA,NA,"Singapore",1.380681008,103.837487
"PARKS","Tampines Eco Green","PLAYGROUND","Tampines Avenue 9 and Tampines Avenue 12",NA,NA,"Singapore",1.363914991,103.94869
"PARKS","Mimosa Terrace Playground","PLAYGROUND","Located along Mimosa Rd",NA,NA,"Singapore",1.384050001,103.86045
"PARKS","Neram Crescent Playground","PLAYGROUND","Neram Crescent",NA,NA,"Singapore",1.385589014,103.865744
"PARKS","Changi Point Waterfront Park","PLAYGROUND","Near Lor Bekukong",NA,NA,"Singapore",1.390647001,103.988089
"PARKS","Aida Park","PLAYGROUND","Between Bedok South Road and Aida Street",NA,NA,"Singapore",1.319380003,103.927927
"PARKS","Tai Keng Gardens Playground","PLAYGROUND","A garden with hill top flanked by Jalan Lokam (Road), Tai keng Lane and Tai keng Garden (Road)",NA,NA,"Singapore",1.346071008,103.884998
"PARKS","Realty Park","PLAYGROUND","Along Hougang Ave 4",NA,NA,"Singapore",1.367963662,103.8903645
"PARKS","Changi Point Promenade","PLAYGROUND","Near Lor Bekukong",NA,NA,"Singapore",1.390172013,103.98919
"PARKS","Aroozoo Avenue Playground","PLAYGROUND","Bounded by Aroozoo Ave and Jalan Mastuli",NA,NA,"Singapore",1.35519602,103.885955
"PARKS","St. Anne's Wood Playground","PLAYGROUND","Inside the private housing estate at St Anne's Wood",NA,NA,"Singapore",1.391640001,103.903736
"PARKS","Bedok Terrace Playground","PLAYGROUND","Between Bedok Rise and Bedok Terrace",NA,NA,"Singapore",1.325534002,103.94749
"PARKS","Bunga Rampai Park","PLAYGROUND","Located along Jalan Bunga Rampai (Road) is a transitional zone among Bartley MRT, Bartley Secondary School and Jalan Bunga Rampai Estate",NA,NA,"Singapore",1.340453023,103.884275
"PARKS","Handy Road Open Space","PLAYGROUND","Bounded by Handy Road, Orchard Road and Zubir Said Drive; In front of The Cathay <U+00AF>",NA,NA,"Singapore",1.298971001,103.847775
"PARKS","Kitchener Green Playground","PLAYGROUND","Along Kitchener Road",NA,NA,"Singapore",1.307304997,103.859533
"PARKS","Penang Road Open Space","PLAYGROUND","Along Penang Road and Oxley Road <U+00AF>",NA,NA,"Singapore",1.300096994,103.841238
"PARKS","National Orchid Garden","PLAYGROUND","In the Central Core of the Singapore Botanic Gardens.Address: 1 Cluny Road, Singapore 259569",NA,NA,"Singapore",1.312670009,103.813894
"PARKS","Eng Kong Garden Playground","PLAYGROUND","Located along Lorong Kismis and Eng Kong Terrace",NA,NA,"Singapore",1.336924017,103.769163
"PARKS","Sennett Avenue Open Space","PLAYGROUND","Sennett Ave",NA,NA,"Singapore",1.318784989,103.939424
"PARKS","Interim Park At Lengkong Enam","PLAYGROUND","Along Jalan Selamat and Lengkong Tujuh",NA,NA,"Singapore",1.32736399,103.914737
"PARKS","Pesari Walk Playground","PLAYGROUND","Along Taman Bedok",NA,NA,"Singapore",1.324428004,103.953982
"PARKS","Changi Heights Playground","PLAYGROUND","Jalan Terang Bulan",NA,NA,"Singapore",1.362848014,103.972157
"PARKS","Jalan Senang Playground","PLAYGROUND","Along Jalan Senang",NA,NA,"Singapore",1.328995983,103.915658
"PARKS","Telok Kurau Park","PLAYGROUND","A green space along Bedok Reservoir PCN. Entrance along Joo Chiat Place, Joo Chiat Walk, Joo Chiat Ave and Lorong J Telok Kurau (Road)",NA,NA,"Singapore",1.315365007,103.914286
"PARKS","Sunrise Place Playground","PLAYGROUND","Located along Sunrise Place",NA,NA,"Singapore",1.386942983,103.8566
"PARKS","Seletar Terrace Playground","PLAYGROUND","Located along Seletar Terrace",NA,NA,"Singapore",1.381468003,103.86872
"PARKS","Upper Peirce Reservoir Park","PLAYGROUND","Along Old Upper Thomson Road",NA,NA,"Singapore",1.374509013,103.811353
"PARKS","Tai Hwan Terrace Playground","PLAYGROUND","Bounded by Tai Hwan Grove and Tai Hwan Terrace",NA,NA,"Singapore",1.356359004,103.860395
"PARKS","Woodlands Town Park East","PLAYGROUND","Along Woodlands street 13",NA,NA,"Singapore",1.436523996,103.779226
"PARKS","Tamarind Road Playground","PLAYGROUND","Tamarind Road",NA,NA,"Singapore",1.389702008,103.860192
"PARKS","Woodlands Waterfront Park","PLAYGROUND","Admiralty Road West",NA,NA,"Singapore",1.452700003,103.780115
"PARKS","Ellington Square Playground","PLAYGROUND","Near Ang Mo Kio Ave 2/ Ang Mo Kio Street 11 and Ellington Square",NA,NA,"Singapore",1.372002011,103.83453
"PARKS","Thrift Drive Open Space","PLAYGROUND","Green open space along Upper Paya Lebar (Road) and along Thrift Drive (Road), facing Jalan Gotong Royong (Road)",NA,NA,"Singapore",1.343887005,103.883247
"PARKS","Cactus Road Playground","PLAYGROUND","Located in Cactus Rd",NA,NA,"Singapore",1.390109003,103.852236
"PARKS","Serenade Walk Playground","PLAYGROUND","Serenade walk road",NA,NA,"Singapore",1.379920993,103.83456
"PARKS","Gelenggang Park","PLAYGROUND","Upper Thomson Road behind ESSO station.  Junction of Jalan Kuras/Jalan Gelenggang",NA,NA,"Singapore",1.373476017,103.829858
"PARKS","Park Villas Terrace Playground","PLAYGROUND","Along Hougang Ave 2 and Park Villas Terrace",NA,NA,"Singapore",1.368981997,103.880039
"PARKS","Jalan Kemuning Park","PLAYGROUND","Off Sembawang Road/Jalan Kemuning Road",NA,NA,"Singapore",1.439358011,103.826964
"PARKS","Sunrise Terrace Open Space","PLAYGROUND","Located along Sunrise Terrace",NA,NA,"Singapore",1.38825799,103.856121
"PARKS","Sunrise Close Playground","PLAYGROUND","Located at the junction of Sunrise Ave & Sunrise Place",NA,NA,"Singapore",1.387012006,103.85751
"PARKS","Thomson Walk Playground","PLAYGROUND","Thomson Walk Road",NA,NA,"Singapore",1.375997005,103.832499
"PARKS","Burgundy Crescent Playground","PLAYGROUND","Burgundy Crescent, within Burgundy Hill Residences",NA,NA,"Singapore",1.33982702,103.760905
"PARKS","Lorong Kemunchup Playground","PLAYGROUND","Along Lorong Kemunchup",NA,NA,"Singapore",1.360420016,103.760959
"PARKS","Chestnut Drive Playground","PLAYGROUND","Junction of Chestnut Drive and Chestnut Terrace",NA,NA,"Singapore",1.367634014,103.76883
"PARKS","Sunset Way Park","PLAYGROUND","Along Sunset Way, located just outside Clementi Park Condo",NA,NA,"Singapore",1.327695,103.764779
"PARKS","Pavilion Park Playground","PLAYGROUND","Pavilion Circle, off Bukit Batok Road",NA,NA,"Singapore",1.372285989,103.751977
"PARKS","West Coast Green Playground","PLAYGROUND","West Coast Green, West Coast Gardens Estate",NA,NA,"Singapore",1.315559997,103.75636
"PARKS","Jalan Dermawan Playground","PLAYGROUND","Along Jln Dermawan",NA,NA,"Singapore",1.360638981,103.758606
"PARKS","one-north Park: Rochester East","PLAYGROUND","Along Vista Exchange Green, in front of Rochester Mall",NA,NA,"Singapore",1.305581227,103.7891622
"PARKS","Jurong Central Park","PLAYGROUND","Junction off Jalan Boon Lay & Boon Lay Way",NA,NA,"Singapore",1.338017009,103.707876
"PARKS","Faber Height Open Space","PLAYGROUND","Along Faber Walk",NA,NA,"Singapore",1.322503996,103.757668
"PARKS","West Coast Place Playground","PLAYGROUND","West Coast Place, West Coast Gardens Estate",NA,NA,"Singapore",1.314253978,103.75845
"PARKS","Westville Playground","PLAYGROUND","Westwood Crescent, along Jalan Bahar",NA,NA,"Singapore",1.354237007,103.698636
"PARKS","Villa Verde Park","PLAYGROUND","Junction of Choa Chu Kang North 5 and Stagmont Ring Rd",NA,NA,"Singapore",1.38954898,103.751411
"PARKS","Chestnut Close Playground","PLAYGROUND","Located at end of Chestnut Close",NA,NA,"Singapore",1.369270011,103.773357
"PARKS","Upper Seletar Reservoir Park","PLAYGROUND","Along Mandai Road Track 7, off Mandai Road",NA,NA,"Singapore",1.399749013,103.805724
"PARKS","Thong Soon Green Playground","PLAYGROUND","Beside petrol kiosk",NA,NA,"Singapore",1.40003199,103.818446
"PARKS","Springleaf Avenue Playground","PLAYGROUND","Springleaf avenue",NA,NA,"Singapore",1.400870986,103.822384
"PARKS","Lentor Walk Playground","PLAYGROUND","Junction of Lentor Loop and Lentor Walk",NA,NA,"Singapore",1.388631003,103.838383
"PARKS","Mariam Way Playground","PLAYGROUND","Mariam Way",NA,NA,"Singapore",1.361952005,103.966205
"PARKS","Mariam Walk Playground","PLAYGROUND","Mariam Walk",NA,NA,"Singapore",1.359547029,103.968547
"PARKS","Thomson Green Playground","PLAYGROUND","Thomson Green road, behind shop houses",NA,NA,"Singapore",1.378692011,103.832623
"PARKS","Surin Avenue Neighbourhood Park","PLAYGROUND","Bounded by Surin Ave and Aroozoo Ave",NA,NA,"Singapore",1.355558014,103.884109
"PARKS","Mimosa Road Playground","PLAYGROUND","Located at Mimosa Crescent next to Mimosa Park Condo",NA,NA,"Singapore",1.384262002,103.862974
"PARKS","Chartwell Drive Park","PLAYGROUND","Along Chartwell Drive",NA,NA,"Singapore",1.359630997,103.863872
"PARKS","Springside Park","PLAYGROUND","Can be seen from the main road",NA,NA,"Singapore",1.405671984,103.820607
"PARKS","Florissa Park Playground","PLAYGROUND","Near Lentor Loop and within Florissa Park",NA,NA,"Singapore",1.386954014,103.835072
"PARKS","Kranji Marshes","PLAYGROUND","Kranji Gate:11 Neo Tiew Lane 2,Singapore 718814",NA,NA,"Singapore",1.420227004,103.719891
"PARKS","Janggus Garden","PLAYGROUND","Off Sembawang Road/Janggus  Road",NA,NA,"Singapore",1.45754,103.836984
"PARKS","Ann Siang Hill Park","PLAYGROUND","Entrance via Ann Siang Road, Ann Siang Hill and Amoy Street",NA,NA,"Singapore",1.280437996,103.846119
"PARKS","Duxton Plain Park","PLAYGROUND","Entrance via New Bridge Road, Neil Road, Kreta Ayer Road and Yan Kit Road",NA,NA,"Singapore",1.281121993,103.841419
"PARKS","Yishun Neighbourhood Park","PLAYGROUND","Bound by Yishun Ave 2, Ave 7 and St 22. Yishun St 20 leads straight to the park.",NA,NA,"Singapore",1.437621993,103.835077
"PARKS","Tanah Puteh Park","PLAYGROUND","Jalan Tanah Puteh",NA,NA,"Singapore",1.315872975,103.931431
"PARKS","Jalan Pari Dedap Playground","PLAYGROUND","Jalan Pari Dedap",NA,NA,"Singapore",1.333020981,103.94388
"PARKS","Jalan Limau Kasturi Playground","PLAYGROUND","Junction of Jalan Limau Kasturi and Jalan Limau Nipis",NA,NA,"Singapore",1.323983001,103.946385
"PARKS","Dew Garden","PLAYGROUND","Jalan Tari Payong",NA,NA,"Singapore",1.39926599,103.871065
"PARKS","Sunrise Way Playground","PLAYGROUND","Located along Sunrise Way",NA,NA,"Singapore",1.387661981,103.856752
"PARKS","Jalan Kelichap Playground","PLAYGROUND","Located along Jalan Kelichap (Road) is a central green space surrounded by residential houses in Tai keng gardens Estate",NA,NA,"Singapore",1.346781994,103.881825
"PARKS","Interim Park at Terang Bulan Avenue","PLAYGROUND","Between New Upper Changi Road and Terang Bulan Ave",NA,NA,"Singapore",1.321632986,103.921577
"PARKS","Sunbird Circle Playground","PLAYGROUND","Sunbird Circle",NA,NA,"Singapore",1.339039003,103.958234
"PARKS","Jalan Pelatok Playground","PLAYGROUND","Jalan Pelatok",NA,NA,"Singapore",1.346094999,103.960344
"PARKS","Jalan Limau Kasturi Open Space","PLAYGROUND","Junction of Jalan Limau Kasturi and Jalan Limau Nipis",NA,NA,"Singapore",1.324284005,103.946228
"PARKS","Changi East Boardwalk","PLAYGROUND","Along Changi Village Road near Civil Service Club",NA,NA,"Singapore",1.391794026,103.986344
"PARKS","Teacher's Estate Playground","PLAYGROUND","Teacher's estate , opposite shop houses",NA,NA,"Singapore",1.381991984,103.8292
"PARKS","Hillview Crescent Playground","PLAYGROUND","Hillview Cescent, along Hillview Avenue",NA,NA,"Singapore",1.355361008,103.761025
"PARKS","Sunset Way Playground","PLAYGROUND","Along Sunset Way",NA,NA,"Singapore",1.326788002,103.766406
"PARKS","one-north Park: Fusionopolis North","PLAYGROUND","Along Central Exchange Green",NA,NA,"Singapore",1.301002038,103.7906345
"PARKS","Taman Mas Merah Playground","PLAYGROUND","Taman Mas Merah, West Coast Peak Estate",NA,NA,"Singapore",1.308750999,103.76476
"PARKS","Cashew Link Playground","PLAYGROUND","Located along Cashew Link and Cashew Crescent",NA,NA,"Singapore",1.371359006,103.768925
"PARKS","Hindhede Nature Park","PLAYGROUND","Along Hindhede Drive",NA,NA,"Singapore",1.350204005,103.776007
"PARKS","Faber Hill Playground","PLAYGROUND","Along Faber Green",NA,NA,"Singapore",1.319766997,103.757976
"PARKS","Raffles Place Park","PLAYGROUND","Bounded by Battery Road and Collyer Quay. It can also be accessed from D'Almeida Street.",NA,NA,"Singapore",1.284243997,103.851335
"PARKS","Hong Lim Park - Speakers' Corner","PLAYGROUND","The park is bounded by North Canal Road, South Bridge Road, Upper Pickering Street and New Bridge Rd",NA,NA,"Singapore",1.286639004,103.846578
"PARKS","Mount Batten Rd/Old Airport Rd Open Space","PLAYGROUND","Junction of Mt Batten Rd & Old Airport Rd",NA,NA,"Singapore",1.305734008,103.883301
"PARKS","Wilkinson Interim Park","PLAYGROUND","Along Wilkinson Road",NA,NA,"Singapore",1.301571987,103.887304
"PARKS","Central Catchment Nature Reserve","PLAYGROUND","601 Island Club Road (Located close to Singapore Island Country Club, via Venus Drive)",NA,NA,"Singapore",1.377304974,103.805474
"PARKS","Bishan-Ang Mo Kio Park","PLAYGROUND","Along Bishan Road and Ang Mo Kio Ave 1",NA,NA,"Singapore",1.361455989,103.847295
"PARKS","Sembawang Hot Spring Park","PLAYGROUND","Along Gambas Avenue",NA,NA,"Singapore",1.434169007,103.8226469
"PARKS","Jalan Pelatok Open Space","PLAYGROUND","Jalan Pelatok",NA,NA,"Singapore",1.346175008,103.960857
"PARKS","Turnhouse Park","PLAYGROUND","Natheravon Road",NA,NA,"Singapore",1.389904019,103.978979
"PARKS","Coney Island Park","PLAYGROUND","Beside Punggol Promenade Nature Walk",NA,NA,"Singapore",1.409913016,103.923131
"PARKS","Stratton Walk Playground","PLAYGROUND","Located at the end of Stratton Walk",NA,NA,"Singapore",1.379237005,103.866967
"PARKS","Leban Park","PLAYGROUND","Behind Sembawang Hills Food Centre.  Upper Thomson Road behind ESSO.",NA,NA,"Singapore",1.372761003,103.829073
"PARKS","Kew Drive Playground","PLAYGROUND","At the roundabout of Kew Drive",NA,NA,"Singapore",1.320710015,103.951754
"PARKS","Harvey Crescent Playground","PLAYGROUND","Harvey Crescent",NA,NA,"Singapore",1.34065899,103.955192
"PARKS","Poh Huat Road Playground","PLAYGROUND","Bounded by Poh Huat Road and Poh Huat Crescent",NA,NA,"Singapore",1.366937017,103.881611
"PARKS","Lentor Street Playground","PLAYGROUND","Near Lentor Crescent and Lentor Street",NA,NA,"Singapore",1.390098002,103.834277
"PARKS","Lilac Drive Playground","PLAYGROUND","Located at the end of Lilac Drive",NA,NA,"Singapore",1.381099011,103.861151
"PARKS","Mei Hwan Drive Playground","PLAYGROUND","Bounded by Lorong Chuan and Ang Mo Kio Ave 1",NA,NA,"Singapore",1.353350016,103.863473
"PARKS","Chuan Green Playground","PLAYGROUND","Along Chuan Drive",NA,NA,"Singapore",1.360480011,103.866008
"PARKS","Begonia Road Playground","PLAYGROUND","Begonia Road near provision shop",NA,NA,"Singapore",1.387856976,103.863388
"PARKS","Fudu Walk Playground","PLAYGROUND","Junction of Lentor Road and Fudu Walk",NA,NA,"Singapore",1.38983501,103.837234
"PARKS","Countryside Playground","PLAYGROUND","Junction of Lentor Loop and Countryside Link and Countryside Road",NA,NA,"Singapore",1.390064987,103.838591
"PARKS","Jalan Pari Burong Playground","PLAYGROUND","Jalan Pari Burong",NA,NA,"Singapore",1.333849008,103.946938
"PARKS","St. Nicholas View Playground","PLAYGROUND","Junction of Ang Mo Kio Ave 2 and Ang Mo Kio Street 11",NA,NA,"Singapore",1.371626001,103.832785
"PARKS","Waringin Park Playground","PLAYGROUND","Along Waringin Park",NA,NA,"Singapore",1.323023001,103.919179
"PARKS","Tai Keng Place Playground","PLAYGROUND","A small playground at the end of Tai keng Place (Road)",NA,NA,"Singapore",1.345032012,103.884842
"PARKS","Parry Road Playground","PLAYGROUND","Bounded by Parry Road, Parry Terrace and Chuan Hoe Avenue",NA,NA,"Singapore",1.366028984,103.877504
"PARKS","Garden View Playground","PLAYGROUND","Along Conway Grove",NA,NA,"Singapore",1.360425013,103.865669
"PARKS","Kallang Riverside Park","PLAYGROUND","Along Kallang Road, Stadium Road and Crawford Street",NA,NA,"Singapore",1.305787006,103.866979
"PARKS","Empress Place","PLAYGROUND","Entrance via Empress Place",NA,NA,"Singapore",1.286823994,103.851957
"PARKS","Mount Faber Park","PLAYGROUND","Junction of Kampong Bahru Road and Telok Blangah Road",NA,NA,"Singapore",1.275281008,103.818222
"PARKS","Limau Garden Playground","PLAYGROUND","Junction of Limau Garden and Salam Walk",NA,NA,"Singapore",1.322453001,103.950773
"PARKS","Meragi Road Playground","PLAYGROUND","Meragi Road",NA,NA,"Singapore",1.344383007,103.960283
"PARKS","Realty Park Playground","PLAYGROUND","Along Lor 1 Realty Park",NA,NA,"Singapore",1.367302019,103.889832
"PARKS","Pasir Ris Town Park","PLAYGROUND","Along Pasir Ris Central, Opposite Pasir Ris MRT Station",NA,NA,"Singapore",1.371689995,103.952378
"PARKS","Bedok Ria Crescent Playground","PLAYGROUND","Between Bedok Ria Crescent and Bedok PCN",NA,NA,"Singapore",1.327417001,103.953082
"PARKS","Coronation Park Playground","PLAYGROUND","Junction of Jalan Hagi Alias and Coronation Road West",NA,NA,"Singapore",1.32202599,103.7964
"PARKS","Platina Road Playground","PLAYGROUND","Platina estate",NA,NA,"Singapore",1.42754499,103.826119
"PARKS","Springleaf Nature Park","PLAYGROUND","Nee Soon Road, Upper Thomson Road",NA,NA,"Singapore",1.401158977,103.8174687
"PARKS","Kranji Reservoir Park","PLAYGROUND","Along Kranji Way",NA,NA,"Singapore",1.438805993,103.740057
"PARKS","Kandis Garden","PLAYGROUND","Off Sembawang Road/Kandis Road",NA,NA,"Singapore",1.456222013,103.835674
"PARKS","Punggol Park","PLAYGROUND","Junction of Hougang Avenue 8 and 10",NA,NA,"Singapore",1.376939012,103.898646
"PARKS","Lower Seletar Reservoir Park","PLAYGROUND","Bounded by Yishun Ave 1 and Lentor Avenue",NA,NA,"Singapore",1.409974,103.832171
"PARKS","Springleaf Garden Playground","PLAYGROUND","Straight from springleaf estate entrance road.",NA,NA,"Singapore",1.398038984,103.822322
"PARKS","Yishun Pond Park","PLAYGROUND","Along Yishun Central, in front of Khoo Teck Puat Hospital",NA,NA,"Singapore",1.427596994,103.839487
"PARKS","Jalan Rasok Park","PLAYGROUND","Along Jln Rasok",NA,NA,"Singapore",1.41651199,103.759039
"PARKS","Goodlink Park Playground","PLAYGROUND","Turn right after Goodlink estate entrance",NA,NA,"Singapore",1.427281004,103.825351
"PARKS","Yishun Park","PLAYGROUND","Bounded by Yishun Ave 4, Yishun Central, Yishun Ave 11 and Yishun Ring Road",NA,NA,"Singapore",1.424376002,103.84261
"PARKS","Lower Peirce Reservoir Park","PLAYGROUND","Along Old Upper Thomson Road",NA,NA,"Singapore",1.369065012,103.826296
"PARKS","Punggol Waterway","PLAYGROUND","Along Sentul Crescent Road",NA,NA,"Singapore",1.402232999,103.915405
"PARKS","Kent Ridge Park","PLAYGROUND","Vigilante Drive off South Buona Vista Road",NA,NA,"Singapore",1.284353007,103.790319
"PARKS","Sisters<U+0092> Islands Marine Park","PLAYGROUND","Sisters<U+0092> Islands",NA,NA,"Singapore",1.214058333,103.8348056
"PARKS","Telok Blangah Hill Park","PLAYGROUND","Telok Blangah Green off Henderson Road",NA,NA,"Singapore",1.278845007,103.810545
"PARKS","HortPark","PLAYGROUND","33 Hyderabad Road (off Alexandra Road), Singapore 119578",NA,NA,"Singapore",1.278630653,103.8014812
"PARKS","Jalan Naung Playground","PLAYGROUND","Along Jalan Naung",NA,NA,"Singapore",1.369562983,103.892822
"PARKS","Chu Yen Playground","PLAYGROUND","Junction of Jln Remaja and Chu Yen Street",NA,NA,"Singapore",1.358640009,103.759016
"PARKS","Kampong Java Park","PLAYGROUND",NA,NA,NA,"Singapore",1.310863003,103.845552
"PARKS","Kim Pong Road Open Space","PLAYGROUND",NA,NA,NA,"Singapore",1.283845008,103.829977
"PARKS","MacRitchie Reservoir Park","PLAYGROUND",NA,NA,NA,"Singapore",1.341522989,103.83359
"PARKS","Singapore Botanic Gardens","PLAYGROUND","Located in central Singapore and just five minutes away (by bus) from Orchard Road.Address: 1 Cluny Road, Singapore 259569",NA,NA,"Singapore",1.311047991,103.816251
"PARKS","Carpmael Road Open Space","PLAYGROUND","Along Carpmael Road and Ceylon Road",NA,NA,"Singapore",1.311502006,103.898952
"PARKS","Lembu Road Open Space","PLAYGROUND",NA,NA,NA,"Singapore",1.309758997,103.854776
"PARKS","East Coast Park","PLAYGROUND","Along East Coast Parkway and East Coast Park Service Road",NA,NA,"Singapore",1.303169006,103.920605
"PARKS","Changi West Boardwalkhttps://authoring.nparks.gov.sg/sitecore/shell/applications/content-editor?ic=People%2F16x16%2Fcubes_blue.png&he=Content%20Editor&cl=0#","PLAYGROUND","Along Andover and Cranwell Road",NA,NA,"Singapore",1.390043988,103.975878
"PARKS","Sungei Buloh Wetland Reserve","PLAYGROUND","Visitor Centre:60 Kranji Way, #01-00Singapore 739453Wetland Centre:301 Neo Tiew CrescentSingapore 718925Parking lots are available near both entrances.",NA,NA,"Singapore",1.440211094,103.7354694
"PARKS","Windsor Nature Park","PLAYGROUND","30 Venus Drive, Singapore 573858 (Located close to Singapore Island Country Club)",NA,NA,"Singapore",1.36002981,103.8269462
"PARKS","Admiralty Park","PLAYGROUND",NA,NA,NA,"Singapore",1.444170424,103.7820589
"PARKS","Woodlands Town Garden","PLAYGROUND",NA,NA,NA,"Singapore",1.437633018,103.769934
"PARKS","Pulau Ubin and Chek Jawa","PLAYGROUND","Pulau Ubin",NA,NA,"Singapore",1.408689993,103.96542
"PARKS","Labrador Nature Reserve","PLAYGROUND","Along Labrador Villa Road",NA,NA,"Singapore",1.265760987,103.803133
"PARKS","Jurong Lake Gardens","PLAYGROUND","Along Yuan Ching Road and Boon Lay WayAddress: 50 Yuan Ching Road Singapore 618661",NA,NA,"Singapore",1.336056618,103.731161
"PARKS","Dairy Farm Nature Park","PLAYGROUND","Along Dairy Farm Road",NA,NA,"Singapore",1.362712994,103.773908
"PARKS","Zhenghua Nature Park","PLAYGROUND","Bounded by Bt Timah Expressway (BKE), BKE Slip Road to Kranji Expressway (KJE) & Dairy Farm Road",NA,NA,"Singapore",1.367938003,103.778349
"PARKS","Bukit Batok Nature Park","PLAYGROUND","Along Bukit Batok East Avenue 2 and Bukit Batok East Avenue 6",NA,NA,"Singapore",1.347543998,103.765472
"PARKS","The Southern Ridges","PLAYGROUND","Southern Singapore",NA,NA,"Singapore",1.279877003,103.804834
"PARKS","Tiong Bahru Park","PLAYGROUND","Along Tiong Bahru Road and Lower Delta Road",NA,NA,"Singapore",1.287617008,103.824027
"PARKS","Clementi Woods Park","PLAYGROUND","Along West Coast Road next to West Coast Plaza",NA,NA,"Singapore",1.298934008,103.767617
"PARKS","Jalan Mas Puteh Playground","PLAYGROUND","Jalan Mas Puteh, West Coast Peak Estate",NA,NA,"Singapore",1.308994994,103.762027
"PARKS","West Coast Park","PLAYGROUND","Parallel to West Coast Highway",NA,NA,"Singapore",1.296153299,103.763
"PARKS","one-north Park: Fusionopolis South","PLAYGROUND","Along Central Exchange Green",NA,NA,"Singapore",1.299613028,103.7907213
"PARKS","Cashew Crescent Fitness Corner Playground","PLAYGROUND","Located along Cashew Road and Cashew Crescent",NA,NA,"Singapore",1.372245015,103.769495
"PARKS","Fuyong Interim Park","PLAYGROUND","Located along Jalan Asas",NA,NA,"Singapore",1.357409008,103.768537
"PARKS","Choa Chu Kang Park","PLAYGROUND","Along Choa Chu Kang Drive, next to KJE",NA,NA,"Singapore",1.389138992,103.748433
"PARKS","Hazel Park Open Space","PLAYGROUND","Located along Upper Bukit Timah Road",NA,NA,"Singapore",1.371635019,103.763645
"PARKS","Jalan Mas Kuning Playground","PLAYGROUND","Jalan Mas Kuning, West Coast Peak Estate",NA,NA,"Singapore",1.307808002,103.763606
"PARKS","Sunset Heights Open Space","PLAYGROUND","Along Sunset Heights",NA,NA,"Singapore",1.327945017,103.768868
"PARKS","Almond Crescent Playground","PLAYGROUND","Junction of Almond Crescent and Almond Street",NA,NA,"Singapore",1.373215009,103.771884
"PARKS","Phoenix Heights Playground","PLAYGROUND","Along Phoenix Rd, off Choa Chu Kang Rd",NA,NA,"Singapore",1.375890034,103.75724
"PARKS","Lakeside Grove Playground","PLAYGROUND","Corporation Rise",NA,NA,"Singapore",1.340072984,103.718594
"PARKS","one-north Park: Rochester West","PLAYGROUND","Along Vista Exchange Green, opposite The Star Vista",NA,NA,"Singapore",1.3061131,103.7880294
"PARKS","Yunnan Park","PLAYGROUND","Yunnan Crescent.Opp Jurong west sports hall.",NA,NA,"Singapore",1.337484986,103.692902
"PARKS","Bukit Batok Town Park","PLAYGROUND","Along Bukit Batok East Avenue 5",NA,NA,"Singapore",1.357360984,103.75607
"PARKS","Jalan Remaja Interim Park","PLAYGROUND","Along Jln Remaja",NA,NA,"Singapore",1.357578001,103.760776
"PARKS","Parry Avenue Interim Park","PLAYGROUND","Along Parry Ave and Glasgow Road",NA,NA,"Singapore",1.364073012,103.881278
"PARKS","Mei Hwan Crescent Playground","PLAYGROUND","Bounded by Mei Hwan Drive and Mei Hwan Crescent",NA,NA,"Singapore",1.352767004,103.861743
"PARKS","Pebble Garden","PLAYGROUND","Off Sembawang Road",NA,NA,"Singapore",1.450638017,103.829489
"PARKS","Kranji Nature Trail","PLAYGROUND","Off Kranji Way",NA,NA,"Singapore",1.444350989,103.733834
"PARKS","Sembawang Park","PLAYGROUND","At the end of Sembawang",NA,NA,"Singapore",1.461502986,103.836845
"PARKS","Sengkang Riverside Park","PLAYGROUND","Anchorvale Street abutting Sungei Punggol",NA,NA,"Singapore",1.399447988,103.884326
"PARKS","Brooks Park","PLAYGROUND","Along Springside Ave",NA,NA,"Singapore",1.405584127,103.822723
"PARKS","Punggol Waterway Park","PLAYGROUND","Along Sentul Crescent Road (Cuts through the whole of Punggol Town)",NA,NA,"Singapore",1.410997022,103.904815
"PARKS","The Foothills Fort Canning Park","PLAYGROUND","Along River Valley Road, opposite Liang Court",NA,NA,"Singapore",1.292257993,103.845691
"PARKS","MacPherson Linear Park","PLAYGROUND","A linear park between Blk 20, Joo Seng Road and MacPherson Road in MacPherson Garden Estate. Also a transitional zone for commuters in industrial areas and for transport purposes.",NA,NA,"Singapore",1.333798002,103.881706
"PARKS","Ganges Avenue Open Space","PLAYGROUND","Along Ganges Avenue",NA,NA,"Singapore",1.290759993,103.831798
"PARKS","Chempaka Avenue Playground","PLAYGROUND","Chempaka Avenue, Sennett Estate",NA,NA,"Singapore",1.331874009,103.875616
"PARKS","Geylang East Park","PLAYGROUND","Besides Geylang East Swimming Complex along Aljunied Ave 1",NA,NA,"Singapore",1.321771988,103.887659
"PARKS","Fort Canning Park","PLAYGROUND","Fort Canning Park is bounded by Hill Street, Canning Rise, Clemenceau Avenue and River Valley Road",NA,NA,"Singapore",1.291778004,103.846609
"PARKS","Changi Beach Park","PLAYGROUND","Along Nicoll Drive and Changi Coast Road",NA,NA,"Singapore",1.38340099,104.001675
"PARKS","Jalan Chempaka Kuning Playground","PLAYGROUND","Jalan Chempaka Kuning",NA,NA,"Singapore",1.329746017,103.950168
"PARKS","Saraca Road Playground","PLAYGROUND","Junction of Saraca Rd & Saraca Drive",NA,NA,"Singapore",1.385943002,103.858758
"PARKS","Mimosa Walk Playground","PLAYGROUND","Located along Mimosa Walk",NA,NA,"Singapore",1.383104999,103.86146
"PARKS","Mera Terrace Playground","PLAYGROUND","Seagull Ave",NA,NA,"Singapore",1.347404006,103.963506
"PARKS","Jalan Angin Laut Playground","PLAYGROUND","Jalan Angin Laut",NA,NA,"Singapore",1.337183986,103.956225
"PARKS","Sunrise Drive Playground 2","PLAYGROUND","Located along Sunrise Drive",NA,NA,"Singapore",1.39030102,103.855252
"PARKS","Lentor Road Playground","PLAYGROUND","Junction of Lentor Road and Lentor Loop",NA,NA,"Singapore",1.38829201,103.837572
"PARKS","Pasir Ris Park","PLAYGROUND","Pasir Ris Park stretches from Pasir Ris Road to Jalan Loyang Besar and can be accessed through Elias Road and Pasir Ris Green",NA,NA,"Singapore",1.378684022,103.952173
"PARKS","Loyang View Playground","PLAYGROUND","Loyang view",NA,NA,"Singapore",1.363039002,103.965637
"PARKS","Jalan Buloh Perindu Playground","PLAYGROUND","Bounded by Jln Buloh Perindu and Keris Drive",NA,NA,"Singapore",1.308482998,103.919384
"PARKS","Tanah Merah Playground","PLAYGROUND","Tanah Merah Kechil Ave",NA,NA,"Singapore",1.329029004,103.946876
"PARKS","Luxus Hills Park","PLAYGROUND","Junction of Ang Mo Kio Ave 5 and Yio Chu Kang Road",NA,NA,"Singapore",1.379492003,103.875186
"PARKS","Banyan Villas Playground","PLAYGROUND","Junction of Lentor Road and Lentor Plains",NA,NA,"Singapore",1.38725001,103.838826
"PARKS","Taman Kembangan Playground","PLAYGROUND","Along Taman Selamat and Taman Kembangan",NA,NA,"Singapore",1.325003012,103.914402
"PARKS","Jalan Limau Manis Playground","PLAYGROUND","Junction of Jalan Limau Nipis and Jalan Limau Manis",NA,NA,"Singapore",1.324727987,103.949048
"PARKS","Richards Avenue Park","PLAYGROUND","Along Richards Ave",NA,NA,"Singapore",1.360928988,103.882129
"PARKS","Lorong Tanggam Park","PLAYGROUND","Lorong Tanggam",NA,NA,"Singapore",1.399035028,103.873848
"PARKS","Bougainvillea Park","PLAYGROUND","Junction of Dunearn Road and Watten Drive",NA,NA,"Singapore",1.326716006,103.807658
"PARKS","Holland Green Playground","PLAYGROUND","End of Holland Green road",NA,NA,"Singapore",1.32686098,103.782814
"PARKS","North Bridge Garden","PLAYGROUND","Along North bridge Road",NA,NA,"Singapore",1.304108993,103.862146
"PARKS","Istana Park","PLAYGROUND","Bounded by Orchard Road, Penang Road, Penang Lane and Buyong Road.",NA,NA,"Singapore",1.299264003,103.843839
"PARKS","Toa Payoh Town Park","PLAYGROUND","Junction of Toa Payoh Lor 2 and Toa Payoh Lor 6",NA,NA,"Singapore",1.330579994,103.847968
"PARKS","Kim Seng Park","PLAYGROUND","Entrance via River Valley Green",NA,NA,"Singapore",1.292839996,103.834957
"PARKS","Mount Sinai Plain Playground","PLAYGROUND","mount sinai plain, mount sinai crescent",NA,NA,"Singapore",1.315709015,103.781222
"PARKS","Thomson Park","PLAYGROUND","along Jalan Sembilang Road",NA,NA,"Singapore",1.35429099,103.834364
"PARKS","Holland Grove View Playground","PLAYGROUND","Along Holland Grove View",NA,NA,"Singapore",1.312950986,103.78123
"PARKS","Dhoby Ghaut Green","PLAYGROUND","Adjacent to Dhoby Ghaut MRT Station, opposite the Park Mall Shopping Centre",NA,NA,"Singapore",1.298343008,103.845882
"PARKS","Mount Emily Park","PLAYGROUND","Along Mt Emily Rd and Upper Wilkie Rd",NA,NA,"Singapore",1.304497996,103.847462
"PARKS","Chiltern Drive Interim Park","PLAYGROUND","Located along Chiltern Drive (Road) within Braddel Height Estate and beside St. Gabriel Secondary School",NA,NA,"Singapore",1.348558987,103.862006
"PARKS","Kew Crescent Playground","PLAYGROUND","Along Kew Crescent",NA,NA,"Singapore",1.319187992,103.948586
"PARKS","Lentor Green Playground","PLAYGROUND","Near Lentor Loop and within Lentor Green",NA,NA,"Singapore",1.385285989,103.837056
"PARKS","Nim Crescent Open Space","PLAYGROUND","Located along Nim Crescent",NA,NA,"Singapore",1.383079989,103.866841
"PARKS","Colchester Grove Open Space","PLAYGROUND","Along Colchester Grove",NA,NA,"Singapore",1.357585001,103.867454
"PARKS","Tavistock Avenue Park","PLAYGROUND","Junction of Ang Mo Kio Ave 3 and Tavistock Ave",NA,NA,"Singapore",1.370206987,103.865358
"PARKS","Elite Terrace Park","PLAYGROUND","Bounded by Elite Park Avenue and Elite Terrace",NA,NA,"Singapore",1.315599016,103.924306
"PARKS","Jalan Selaseh Playground","PLAYGROUND","Bounded by Jalan Selaseh, Seletar Hills Drive & Jalan Keruing",NA,NA,"Singapore",1.385602002,103.873382
"PARKS","Jalan Geneng Interim Park","PLAYGROUND","Along Jalan Geneng",NA,NA,"Singapore",1.35333802,103.880875
"PARKS","Kampong Glam Park","PLAYGROUND","Along beach road",NA,NA,"Singapore",1.302445014,103.862996
"PARKS","Clover Way Playground","PLAYGROUND","Junction of Clover Way and Binchang Rise",NA,NA,"Singapore",1.350138,103.845965
"PARKS","Marine Parade Road Park","PLAYGROUND","A linear park along Marine Parade Road between Still Road South (Road) and East Coast Road. It flanked itself at terminal roads of private houses with one courtyard in front of Grand Mercue Roxy Hotel.",NA,NA,"Singapore",1.304896993,103.908132
"PARKS","Butterfly Avenue Playground","PLAYGROUND","Butterfly Avenue, Sennett Estate",NA,NA,"Singapore",1.334434001,103.877337
"PARKS","Marymount Terrace Playground","PLAYGROUND","End of Marymount Terrace",NA,NA,"Singapore",1.348953004,103.840365
"PARKS","Carmichael Road Playground","PLAYGROUND","Carmichael Road",NA,NA,"Singapore",1.342621999,103.863115
"PARKS","Greenridge Crescent Playground","PLAYGROUND","Located along Greenridge Crescent",NA,NA,"Singapore",1.334280003,103.765763
"PARKS","Fulton Avenue Playground","PLAYGROUND","Along Fulton Ave",NA,NA,"Singapore",1.362119006,103.833535
"PARKS","Savoy Park Playground","PLAYGROUND","Located at the end of Eng Kong Drive",NA,NA,"Singapore",1.333437999,103.769989
"PARKS","Eng Kong Place Fitness Corner","PLAYGROUND","Located along Eng Kong Place",NA,NA,"Singapore",1.334739008,103.767247
"PARKS","Pandan Reservoir Fitness Corner","PLAYGROUND","Juntion of West Coast Road & Pandan Gardens",NA,NA,"Singapore",1.317551006,103.748696
"PARKS","Bukit Timah Nature Reserve","PLAYGROUND","End of Hindhede Drive",NA,NA,"Singapore",1.353198982,103.774033
"PARKS","one-north Park: Mediapolis","PLAYGROUND","Media Circle, next to MediaCorp campus",NA,NA,"Singapore",1.294938345,103.7928295
"PARKS","Lakeside Grove Fitness Corner","PLAYGROUND","Corporation Rise, along Lakeside PCN.",NA,NA,"Singapore",1.33980401,103.71716
"PARKS","Westwood Park Playground","PLAYGROUND","Westwood Crescent/Ave.",NA,NA,"Singapore",1.351771995,103.701048
"PARKS","Cashew Road Playground","PLAYGROUND","Junction of Cashew Road and Upper Bukit Timah Road",NA,NA,"Singapore",1.370600005,103.764668
"PARKS","The Inglewood Playground","PLAYGROUND","Along the Inglewood",NA,NA,"Singapore",1.361013983,103.830174
"PARKS","Duchess Park","PLAYGROUND","Along Duchess Avenue",NA,NA,"Singapore",1.324289989,103.805479
"PARKS","Clover Crescent Playground","PLAYGROUND","Along Clover Crescent and Clover Ave",NA,NA,"Singapore",1.351061996,103.844622
"PARKS","Binchang Rise Playground","PLAYGROUND","At the end of Binchang Rise",NA,NA,"Singapore",1.348673983,103.843548
"PARKS","East Coast Terrace Park","PLAYGROUND","2 parts of the Park, bounded by East Coast Avenue and Marine Parade Road",NA,NA,"Singapore",1.310996001,103.923806
"PARKS","Sennett Avenue Playground","PLAYGROUND","Bounded by Sennett Ave and Sennett Place",NA,NA,"Singapore",1.317013002,103.936212
"PARKS","Lucky Gardens Playground","PLAYGROUND","Lucky Gardens",NA,NA,"Singapore",1.319287002,103.941376
"PARKS","Bedok Town Park","PLAYGROUND","Bedok North Avenue 3. Bounded by Bedok North Road, Bedok North Avenue 3 and the Pan Island Expressway",NA,NA,"Singapore",1.334335434,103.9208701
"PARKS","Lentor Grove Playground","PLAYGROUND","Near Lentor Road and Lentor Green",NA,NA,"Singapore",1.38637898,103.838321
"PARKS","Telok Kurau Lorong N Park","PLAYGROUND","Lorong N Telok Kurau",NA,NA,"Singapore",1.310324992,103.912805
"PARKS","Dedap Place Playground","PLAYGROUND","Dedap Place",NA,NA,"Singapore",1.38779799,103.868413
"PARKS","Chuan Walk Playground","PLAYGROUND","Along Chuan Walk",NA,NA,"Singapore",1.357221983,103.867553
"PARKS","Bedok Reservoir Park","PLAYGROUND","Along Bedok Reservoir Road",NA,NA,"Singapore",1.339094002,103.92681
"PARKS","Jalan Riang Playground","PLAYGROUND","Located along Jalan Riang (Road) is a central green space surrounded by shophouses and residential houses in Braddel Height Estate.",NA,NA,"Singapore",1.347108987,103.867396
"PARKS","Cheng Soon Garden Playground","PLAYGROUND","Located along Kismis Road and Toh Yi Drive",NA,NA,"Singapore",1.335886008,103.771683
"PARKS","Jalan Tekukor Playground","PLAYGROUND","Jalan Selanting, along Jalan Jurong Kechil",NA,NA,"Singapore",1.346138019,103.766776
"PARKS","Namly Park","PLAYGROUND","Located along Namly Place",NA,NA,"Singapore",1.323298993,103.796581
"PARKS","Novena Rise Park","PLAYGROUND","Along Novena Rise",NA,NA,"Singapore",1.324838011,103.842728
"PARKS","Hooper Road Playground","PLAYGROUND","Along Hooper Road and Makepeace Road/Jalan Aruan",NA,NA,"Singapore",1.312399003,103.843204
"PARKS","Chwee Chian Playground","PLAYGROUND","Chwee Chian Road, Springwood Estate",NA,NA,"Singapore",1.279206998,103.788954
"PARKS","Esplanade Park","PLAYGROUND","Along Connaught Drive, opposite Padang and City Hall",NA,NA,"Singapore",1.289417001,103.853597
"PARKS","Arthur Park","PLAYGROUND","Along Arthur Road",NA,NA,"Singapore",1.303381003,103.888214
"PARKS","one-north Park: Biopolis","PLAYGROUND","North Buona Vista Road, opposite Ministry of Education",NA,NA,"Singapore",1.304278005,103.790368
"PARKS","Katong Park","PLAYGROUND","Junction of Meyer Road & Fort Road",NA,NA,"Singapore",1.297175002,103.886367
"PARKS","Meyer Road Playground","PLAYGROUND","Junction of Meyer Road & Crescent Rd",NA,NA,"Singapore",1.298568993,103.894197
"PARKS","Thomson Road Playground","PLAYGROUND","Along Licoln Road",NA,NA,"Singapore",1.316152985,103.843852
"PARKS","Jacob Ballas Children's Garden","PLAYGROUND","In the Bukit Timah Core of the Singapore Botanic GardensAddress: 481, Bukit Timah Road, Singapore 259769",NA,NA,"Singapore",1.320695493,103.8179182
"PARKS","Jupiter Road Playground","PLAYGROUND","Along Jupiter road playground",NA,NA,"Singapore",1.358270003,103.825161
"PARKS","Gentle Drive Playground","PLAYGROUND","At the end of Gentle Drive",NA,NA,"Singapore",1.320361006,103.840699
"PARKS","Goldhill Avenue Playground","PLAYGROUND","Junction of Goldhill Place and Goldhil Avenue",NA,NA,"Singapore",1.321132982,103.833174
"PARKS","Pasir Panjang Park","PLAYGROUND","Off Pasir Panjang Road, beside Pasir Panjang Food Centre",NA,NA,"Singapore",1.275698999,103.792076
"PARKS","Lorong 40 Geylang Playground","PLAYGROUND","Along Lor 40 Geylang",NA,NA,"Singapore",1.313650016,103.889369
"PARKS","Grove Lane Playground","PLAYGROUND","Grove Lane, Grove Crescent and Grove Avenue",NA,NA,"Singapore",1.313763009,103.784206
"PARKS","Orchard Fountain Corner","PLAYGROUND","Junction of Grange Road and Orchard Road",NA,NA,"Singapore",1.301587003,103.837611
"PARKS","Holland Village Park","PLAYGROUND","Junction of Holland Road and Holland Avenue",NA,NA,"Singapore",1.31173,103.795544
"PARKS","Waterboat House Garden","PLAYGROUND","Along Fullerton Road",NA,NA,"Singapore",1.287320006,103.853473
"PARKS","Rowell Road Open Space","PLAYGROUND","Along Rowell Rd",NA,NA,"Singapore",1.308422003,103.854849
"PARKS","Youth Olympic Park","PLAYGROUND","Raffles Avenue. Junction of Raffles Avenue and Bayfront Bridge",NA,NA,"Singapore",1.288489996,103.860639
"PARKS","Greenwood Crescent Playground","PLAYGROUND","Along Greenwood crescent",NA,NA,"Singapore",1.335506016,103.805487
"PARKS","Berlayer Creek","PLAYGROUND","Behind Labrador Park MRT Station, 701 Telok Blangah Road",NA,NA,"Singapore",1.272364992,103.802693
"PARKS","Novena Park","PLAYGROUND","Along Jalan Novena",NA,NA,"Singapore",1.322312979,103.842813
"PARKS","Golden Rise Playground","PLAYGROUND","Junction of Lorong Kismis and Toh Tuck Rise",NA,NA,"Singapore",1.336324018,103.764869
"PARKS","Hoover Park","PLAYGROUND","Along Lorong Pisang Batu",NA,NA,"Singapore",1.343862985,103.77304
"PARKS","Tanjong Katong Road South Playground","PLAYGROUND","Along Tg Katong Road South",NA,NA,"Singapore",1.300174003,103.897322
"PARKS","Jalan Kebaya Playground","PLAYGROUND","junction of Jln Kebaya and Holland Grove Ave",NA,NA,"Singapore",1.314115017,103.780246
"PARKS","Shelford Road Playground","PLAYGROUND","Junction of Watten Rise and Shelford Road",NA,NA,"Singapore",1.328344008,103.810509
"PARKS","Malcolm Park","PLAYGROUND","Along Malcolm Rd and Whiteley Rd",NA,NA,"Singapore",1.322987012,103.827058
"PARKS","Telok Ayer Park","PLAYGROUND","Bounded by Maxwell Road, Cecil Street and Telok Ayer Street",NA,NA,"Singapore",1.278177998,103.846687
"PARKS","Aljunied Park","PLAYGROUND","Along Aljunied Road within Happy Garden Estate",NA,NA,"Singapore",1.329138016,103.879963
"PARKS","Jambol Place Park","PLAYGROUND","Jambol Place, Springwood Estate",NA,NA,"Singapore",1.279026005,103.790185
"PARKS","Pearl's Hill City Park","PLAYGROUND","Along Chin Swee Road and Pearl's Hill Road",NA,NA,"Singapore",1.282380991,103.839541
"PARKS","Oasis@Mulberry Park","PLAYGROUND","Junction of Upper Aljunied Road & Mulberry Avenue, Sennett Estate",NA,NA,"Singapore",1.33232501,103.878436
"PARKS","Haig Walk","PLAYGROUND","Adjacent to Seraya Lane and Mugliston Road",NA,NA,"Singapore",1.306519,103.90074
"PARKS","Jalan Pintau Playground","PLAYGROUND","along Jalan Pintau",NA,NA,"Singapore",1.354035993,103.839945
"PARKS","Joo Chiat Terrace Interim Park","PLAYGROUND","Along Joo Chiat Terrace",NA,NA,"Singapore",1.314407999,103.901699
"PARKS","Orchid Village Playground","PLAYGROUND","Along Liden Dr",NA,NA,"Singapore",1.335704011,103.801713
"PARKS","Clementi Crescent Playground","PLAYGROUND","Within Clementi Crescent Estate",NA,NA,"Singapore",1.323103989,103.77326
"PARKS","Pemimpin Place Playground","PLAYGROUND","Along Pemimpin Place",NA,NA,"Singapore",1.353370004,103.84272
"PARKS","Soo Chow Walk Playground","PLAYGROUND","along Soo chow walk",NA,NA,"Singapore",1.353646967,103.832028
"PARKS","Highgate Walk Playground","PLAYGROUND","Along Highgate walk",NA,NA,"Singapore",1.340515987,103.765984
"PARKS","Island Gardens Walk Playground","PLAYGROUND","Along Island Garden Walk",NA,NA,"Singapore",1.361998996,103.828439
"PARKS","Marina Promenade","PLAYGROUND","Along Republic Boulevard and Republic Avenue",NA,NA,"Singapore",1.290572001,103.864679
"PARKS","Ang Mo Kio Town Garden East","PLAYGROUND","Junction of Ang Mo Kio Ave 3 and 8, behind Ang Mo Kio MRT Station",NA,NA,"Singapore",1.370571,103.850286
"PARKS","Holland Grove View Fitness Corner","PLAYGROUND","Along Holland Grove View",NA,NA,"Singapore",1.312482992,103.782779
"PARKS","Sixth Avenue Playground","PLAYGROUND","Along Sixth Avenue",NA,NA,"Singapore",1.322436017,103.791281
"PARKS","War Memorial Park","PLAYGROUND","Bounded by Nicoll Highway, Stamford Road, Beach Road and Bras Basah Road",NA,NA,"Singapore",1.292824997,103.854818
"PARKS","Beng Wan Road Playground","PLAYGROUND","Along Beng Wan Road",NA,NA,"Singapore",1.323805979,103.865835
"PARKS","Henry Park","PLAYGROUND","Along holland grove road",NA,NA,"Singapore",1.316234998,103.783106
"PARKS","River Valley Road / Clemenceau Avenue Open Space","PLAYGROUND","Bounded by River Valley Road and Clemenceau Avenue",NA,NA,"Singapore",1.293089996,103.844915
"PARKS","Ang Mo Kio Town Garden West","PLAYGROUND","Opposite Ang Mo Kio Town Library, along Ang Mo Kio Avenue 6",NA,NA,"Singapore",1.374025014,103.842887
"PARKS","Mayfair Park","PLAYGROUND","Located along Jalan Gaharu",NA,NA,"Singapore",1.341395989,103.780895
"PARKS","Guillemard Road Open Space","PLAYGROUND","Besides City Plaza towards Geylang Road",NA,NA,"Singapore",1.31455099,103.892397
"PARKS","Thomson Park Estate Interim Park","PLAYGROUND",NA,NA,NA,"Singapore",1.356556988,103.834035
"PARKS","Bangsawan Park","PLAYGROUND","Jalan Bangsawan",NA,NA,"Singapore",1.321207995,103.923838
"PARKS","Eastwood Park Playground","PLAYGROUND","Between Eastwood Way and Bedok PCN",NA,NA,"Singapore",1.32311502,103.957616
"PARKS","Watten Heights Playground","PLAYGROUND","Along Watten Estate Road",NA,NA,"Singapore",1.331702984,103.808987
"PARKS","Taman Permata Park","PLAYGROUND","Along Upper Thomson Road",NA,NA,"Singapore",1.350155996,103.835175
"PARKS","Hua Guan Crescent Playground","PLAYGROUND","Located along Hua Guan Crescent",NA,NA,"Singapore",1.337011004,103.78506
"PARKS","Siang Kuang Avenue Interim Park","PLAYGROUND","Siang Kuang Avenue, Sennett Estate",NA,NA,"Singapore",1.329720994,103.87305
"PARKS","Somme Road Playground","PLAYGROUND","Along Petain Rd and Kitchener Link",NA,NA,"Singapore",1.311484011,103.858152
"PARKS","Stamford Green","PLAYGROUND","Bounded by Canning Rise and Stamford Road; Next to National Museum of Singapore",NA,NA,"Singapore",1.295716995,103.848861
"PARKS","King's Drive  Playground","PLAYGROUND","junction of king's road and king's drive",NA,NA,"Singapore",1.31911,103.806056
"PARKS","University Road Park","PLAYGROUND","At the end of University Walk",NA,NA,"Singapore",1.325451997,103.817666
"PARKS","Greenleaf View Park Playground","PLAYGROUND","At the end of Greenleaf View",NA,NA,"Singapore",1.322288011,103.788076
"PARKS","Chestnut Nature Park","PLAYGROUND","Located along Chestnut Avenue and is abutting Central Catchment Nature Reserve, stretches along BKE, from Gali Batu Flyover to Dairy Farm Flyover.PUB Waterworks is situated at the end of Chestnut Avenue, demarking the access road across the middle of Chestnut Nature Park.",NA,NA,"Singapore",1.370971567,103.7808374
